{
"type": "FeatureCollection",
"name": "batas_desa",
"crs": { "type": "name", "properties": { "name": "urn:ogc:def:crs:OGC:1.3:CRS84" } },
"features": [
{ "type": "Feature", "properties": { "FID_": 0, "Entity": "3DPolyline", "Layer": "KAIBONPETANGKURAN", "Color": 254, "Linetype": "Continuous", "Elevation": 0.0, "LineWt": 9, "RefName": null }, "geometry": { "type": "Polygon", "coordinates": [ [ [ 109.735335553532096, -7.78511 ], [ 109.735344554532119, -7.78511 ], [ 109.736057553532149, -7.784957 ], [ 109.737118554532131, -7.785120000999939 ], [ 109.736892552532098, -7.785688 ], [ 109.737484553532127, -7.785784000999968 ], [ 109.737679553532146, -7.785417998999947 ], [ 109.739238553532132, -7.78553699899993 ], [ 109.74058255353215, -7.785827 ], [ 109.740480552532134, -7.786287000999948 ], [ 109.742126553532117, -7.786914000999957 ], [ 109.742989553532098, -7.786281 ], [ 109.743362554532112, -7.786507000999961 ], [ 109.743400845532122, -7.786896798999976 ], [ 109.743427281532107, -7.787165915999935 ], [ 109.743451553532125, -7.787413 ], [ 109.743290553532134, -7.787989000999971 ], [ 109.743782553532142, -7.788075 ], [ 109.744190553532135, -7.788166000999979 ], [ 109.744073553532147, -7.788733 ], [ 109.74391855353214, -7.789594 ], [ 109.743607553532129, -7.790721000999952 ], [ 109.744697553532106, -7.791048000999979 ], [ 109.74443655353214, -7.791739 ], [ 109.743455553532115, -7.791519998999945 ], [ 109.743397553532148, -7.791724 ], [ 109.743291553532131, -7.792452000999958 ], [ 109.743117553532116, -7.793370000999971 ], [ 109.742906553532137, -7.794343 ], [ 109.742746553532143, -7.795070000999942 ], [ 109.742501553532136, -7.79603 ], [ 109.742321553532136, -7.796827 ], [ 109.742136553532148, -7.797458000999939 ], [ 109.742010553532126, -7.797923 ], [ 109.741798553532149, -7.798355 ], [ 109.741557553532132, -7.798865000999967 ], [ 109.741492553532126, -7.799296 ], [ 109.741396553532141, -7.799889 ], [ 109.741354552532144, -7.800065 ], [ 109.741172553532138, -7.80085700099994 ], [ 109.740992553532138, -7.801645 ], [ 109.740866554532104, -7.802414000999931 ], [ 109.740786554532136, -7.803047 ], [ 109.740711552532119, -7.803415000999962 ], [ 109.740428553532141, -7.804329000999928 ], [ 109.740267553532149, -7.804876000999968 ], [ 109.74020755353213, -7.805170998999927 ], [ 109.740231553532126, -7.805831000999945 ], [ 109.740163552532138, -7.805977 ], [ 109.74016255353213, -7.805978 ], [ 109.740052553532124, -7.80707 ], [ 109.739993553532102, -7.807505 ], [ 109.739932553532142, -7.808258 ], [ 109.739872554532113, -7.808837000999972 ], [ 109.7397915535321, -7.809156 ], [ 109.739777553532136, -7.809467 ], [ 109.739684563532094, -7.809977927999967 ], [ 109.739658847532112, -7.809968191999928 ], [ 109.739621551532096, -7.809954924999943 ], [ 109.73958804553213, -7.809941925999965 ], [ 109.7395796955321, -7.809938813999963 ], [ 109.739522221532141, -7.809918542999981 ], [ 109.739471497532136, -7.809899887999961 ], [ 109.739448595532124, -7.809891284999935 ], [ 109.739425755532139, -7.80988218799996 ], [ 109.739409555532134, -7.809875253999962 ], [ 109.739393551532103, -7.809867926999971 ], [ 109.739371021532136, -7.809857048999959 ], [ 109.739363464532133, -7.80985359899995 ], [ 109.73935581953215, -7.809850400999949 ], [ 109.739347678532127, -7.809847421999962 ], [ 109.739339410532139, -7.809844829999975 ], [ 109.739331027532117, -7.80984263199997 ], [ 109.739322506532133, -7.809840834999932 ], [ 109.739313900532139, -7.809839369999963 ], [ 109.739305234532097, -7.80983815899998 ], [ 109.739287783532134, -7.809836311999959 ], [ 109.739270233532139, -7.809835106999969 ], [ 109.739261609532107, -7.80983475499994 ], [ 109.739244336532138, -7.809834384999931 ], [ 109.739176904532101, -7.809834108999951 ], [ 109.739160777532121, -7.809833864999973 ], [ 109.739145413532142, -7.809833417999926 ], [ 109.739122385532099, -7.809832375999974 ], [ 109.739107030532139, -7.80983140099994 ], [ 109.739084000532117, -7.809829514999933 ], [ 109.73906867153211, -7.809827997999946 ], [ 109.739043140532104, -7.809824981999952 ], [ 109.739017657532102, -7.809821557999953 ], [ 109.739000660532113, -7.80981904999993 ], [ 109.738975148532134, -7.809814981999978 ], [ 109.738949682532123, -7.809810641999945 ], [ 109.738932366532097, -7.809807503999934 ], [ 109.738918722532119, -7.809804959999951 ], [ 109.738873806532141, -7.809796585999948 ], [ 109.73886040753213, -7.809793809999974 ], [ 109.738852927532108, -7.809791966999967 ], [ 109.738845491532132, -7.809789930999955 ], [ 109.738838090532127, -7.809787745999927 ], [ 109.738823046532119, -7.809782951999978 ], [ 109.738807782532106, -7.809777702999952 ], [ 109.738800195532136, -7.809774944999958 ], [ 109.738785149532148, -7.809769090999964 ], [ 109.738770987532135, -7.809763010999973 ], [ 109.73876233853214, -7.809759104999955 ], [ 109.738721662532114, -7.809740735999981 ], [ 109.738707432532138, -7.80973404599996 ], [ 109.738637238532149, -7.809700444999976 ], [ 109.738617150532107, -7.809690283999942 ], [ 109.738603580532143, -7.809683009999958 ], [ 109.738589836532142, -7.809675241999969 ], [ 109.738576291532141, -7.809667132999948 ], [ 109.738561419532132, -7.80965761799996 ], [ 109.738546720532113, -7.809647810999934 ], [ 109.738526185532137, -7.809633864999967 ], [ 109.738488171532097, -7.809607670999981 ], [ 109.738475499532129, -7.809599569999932 ], [ 109.738468785532135, -7.80959564099993 ], [ 109.738461972532107, -7.809591908999948 ], [ 109.738455070532112, -7.80958837299994 ], [ 109.738448084532095, -7.809585046999928 ], [ 109.7384410105321, -7.809581960999935 ], [ 109.738433841532142, -7.809579163999956 ], [ 109.73842655953213, -7.809576728999957 ], [ 109.738419894532129, -7.809574899999973 ], [ 109.738413141532149, -7.809573388999979 ], [ 109.738406317532124, -7.809572160999949 ], [ 109.738399435532145, -7.809571195999979 ], [ 109.738390928532127, -7.80957034599993 ], [ 109.738382370532136, -7.809569778999958 ], [ 109.738365156532112, -7.809569194999938 ], [ 109.73833057353211, -7.809568997999975 ], [ 109.738249456532131, -7.809569231999944 ], [ 109.738225258532125, -7.809569421999981 ], [ 109.738173007532126, -7.809570559999941 ], [ 109.738134639532134, -7.809571238999979 ], [ 109.738118842532131, -7.809571716999926 ], [ 109.738102610532124, -7.809572592999928 ], [ 109.738094522532108, -7.809573262999947 ], [ 109.738071077532098, -7.809575908999932 ], [ 109.738055782532129, -7.809577290999925 ], [ 109.738048128532128, -7.809577694999973 ], [ 109.738040474532127, -7.809577828999977 ], [ 109.738031672532102, -7.809577586999978 ], [ 109.738022880532142, -7.809576970999956 ], [ 109.738014105532116, -7.809576036999943 ], [ 109.738005358532135, -7.809574809999958 ], [ 109.737996648532103, -7.809573287999967 ], [ 109.737988383532141, -7.80957154999993 ], [ 109.737980160532132, -7.809569575999944 ], [ 109.737971978532144, -7.809567406999975 ], [ 109.737955740532144, -7.809562553999967 ], [ 109.737947698532096, -7.809559863999937 ], [ 109.737940007532146, -7.809557090999931 ], [ 109.737932362532106, -7.809554175999949 ], [ 109.737917164532135, -7.809548070999938 ], [ 109.73786310453211, -7.809525378999979 ], [ 109.737830434532114, -7.809512054999971 ], [ 109.7378139935321, -7.809505697999953 ], [ 109.737780482532131, -7.809493489999966 ], [ 109.737763850532147, -7.809487141999966 ], [ 109.737755634532121, -7.809483738999973 ], [ 109.737748442532123, -7.809480550999979 ], [ 109.737719972532105, -7.809467066999957 ], [ 109.737704752532139, -7.809460145999935 ], [ 109.737689363532141, -7.809453592999944 ], [ 109.737681827532143, -7.809450562999928 ], [ 109.737666666532121, -7.809444717999952 ], [ 109.737634738532122, -7.809432821999962 ], [ 109.737586420532139, -7.809415337999951 ], [ 109.737553497532147, -7.809403157999952 ], [ 109.737536916532136, -7.809397469999965 ], [ 109.737520140532141, -7.809392456999944 ], [ 109.7375032075321, -7.809387993999962 ], [ 109.737486157532103, -7.809384012999942 ], [ 109.737477589532105, -7.809382235999976 ], [ 109.737468986532136, -7.809380646999955 ], [ 109.7374604435321, -7.809379289999981 ], [ 109.737451869532109, -7.80937810599994 ], [ 109.737434662532124, -7.809376070999974 ], [ 109.7373828975321, -7.80937073299998 ], [ 109.73736566953211, -7.809368723999967 ], [ 109.737341295532147, -7.809365344999947 ], [ 109.737269604532131, -7.809354398999972 ], [ 109.737254223532105, -7.809352272999945 ], [ 109.73723697353212, -7.809350147999965 ], [ 109.737219694532101, -7.809348296999929 ], [ 109.737202384532125, -7.809346784999946 ], [ 109.737194334532106, -7.809346236999943 ], [ 109.737178217532133, -7.809345421999978 ], [ 109.737162088532116, -7.809344950999957 ], [ 109.737153936532096, -7.809344849999945 ], [ 109.737137646532133, -7.809344865999947 ], [ 109.737113888532136, -7.809345127999961 ], [ 109.737106111532128, -7.809345092999934 ], [ 109.737098371532127, -7.80934487199994 ], [ 109.737090677532095, -7.809344371999941 ], [ 109.737083047532124, -7.809343480999928 ], [ 109.737075764532122, -7.809342165999965 ], [ 109.737068540532121, -7.80934046699997 ], [ 109.737061365532114, -7.809338466999975 ], [ 109.737054230532138, -7.809336229999928 ], [ 109.737047128532097, -7.809333806999973 ], [ 109.737030703532142, -7.809327657999972 ], [ 109.736981647532119, -7.809307855999975 ], [ 109.736942112532134, -7.809292249999942 ], [ 109.736926920532099, -7.809285984999974 ], [ 109.736897376532127, -7.809273498999971 ], [ 109.736882058532117, -7.809267295999973 ], [ 109.736866651532139, -7.809261319999962 ], [ 109.736850582532114, -7.80925541199997 ], [ 109.736834438532142, -7.80924970999996 ], [ 109.736810131532096, -7.809241410999959 ], [ 109.736748222532142, -7.809221333999972 ], [ 109.736732742532141, -7.809215951999931 ], [ 109.736693935532131, -7.809202026999969 ], [ 109.736669988532142, -7.809193809999954 ], [ 109.73665392553211, -7.80918866899998 ], [ 109.736645845532124, -7.809186269999941 ], [ 109.736637671532108, -7.809184011999946 ], [ 109.73662121453215, -7.80917991299998 ], [ 109.736604639532132, -7.80917633599995 ], [ 109.736596307532139, -7.809174774999974 ], [ 109.736587750532138, -7.809173362999957 ], [ 109.736570560532144, -7.809170968999979 ], [ 109.736553306532144, -7.809168966999948 ], [ 109.736536040532101, -7.809167273999947 ], [ 109.736510142532111, -7.809165117999953 ], [ 109.736421452532127, -7.809158466999975 ], [ 109.736403774532121, -7.809157324999944 ], [ 109.736387263532109, -7.809156585999972 ], [ 109.736364248532098, -7.809156080999969 ], [ 109.736318193532114, -7.809155499999974 ], [ 109.736300930532096, -7.809155033999957 ], [ 109.736282992532111, -7.809154208999928 ], [ 109.736238148532109, -7.809151648999944 ], [ 109.736220190532109, -7.809150876999979 ], [ 109.736204818532102, -7.809150509999938 ], [ 109.736163850532094, -7.809150034999959 ], [ 109.73614683853215, -7.80914957899995 ], [ 109.736138367532149, -7.809149154999943 ], [ 109.736129933532098, -7.809148518999962 ], [ 109.736121416532129, -7.809147583999959 ], [ 109.736112976532141, -7.809146316999943 ], [ 109.736104638532098, -7.809144659999959 ], [ 109.736096440532108, -7.809142520999956 ], [ 109.736088485532107, -7.809139844999947 ], [ 109.736080688532141, -7.809136685999931 ], [ 109.736073037532108, -7.80913312399997 ], [ 109.736065533532113, -7.809129202999941 ], [ 109.736058007532122, -7.809124852999958 ], [ 109.736050606532118, -7.809120238999981 ], [ 109.736043300532131, -7.809115431999942 ], [ 109.736028897532108, -7.80910541999998 ], [ 109.736014726532133, -7.809095027999945 ], [ 109.736007734532123, -7.809089698999969 ], [ 109.735995130532118, -7.809079736999934 ], [ 109.735963948532131, -7.809054438999965 ], [ 109.735951361532116, -7.809044486999937 ], [ 109.735908495532115, -7.809012111999948 ], [ 109.735882122532146, -7.808991423999942 ], [ 109.735868747532109, -7.808981349999954 ], [ 109.735862050532106, -7.808976603999952 ], [ 109.735848432532137, -7.808967418999941 ], [ 109.735813922532103, -7.808945075999929 ], [ 109.7357925515321, -7.808931056999938 ], [ 109.735777940532117, -7.808921857999962 ], [ 109.735770493532144, -7.808917572999974 ], [ 109.735762884532122, -7.808913635999943 ], [ 109.735756156532105, -7.808910597999954 ], [ 109.735749292532105, -7.808907859999977 ], [ 109.735742317532143, -7.808905379999942 ], [ 109.735735249532141, -7.808903130999965 ], [ 109.735728101532132, -7.808901102999926 ], [ 109.73572086153213, -7.808899283999949 ], [ 109.735706222532102, -7.808896149999953 ], [ 109.735691445532112, -7.808893513999976 ], [ 109.735683163532102, -7.808892219999962 ], [ 109.73566654653213, -7.808889904999944 ], [ 109.735649889532127, -7.808887866999953 ], [ 109.735633207532103, -7.808886113999961 ], [ 109.73562485753213, -7.808885381999971 ], [ 109.735616499532128, -7.808884784999975 ], [ 109.735599464532143, -7.808884030999934 ], [ 109.735548277532146, -7.808883173999959 ], [ 109.735525142532097, -7.808882524999945 ], [ 109.735495134532144, -7.808881219999932 ], [ 109.735454600532094, -7.808879096999931 ], [ 109.735430309532106, -7.808877561999964 ], [ 109.735413088532098, -7.808876164999958 ], [ 109.735395942532151, -7.808874254999978 ], [ 109.735378520532109, -7.808871539999927 ], [ 109.73536117953212, -7.808868374999975 ], [ 109.735345144532133, -7.808865226999956 ], [ 109.735337176532099, -7.808863480999946 ], [ 109.735329263532108, -7.80886153199998 ], [ 109.73532127853214, -7.80885928899994 ], [ 109.735313345532134, -7.808856848999937 ], [ 109.735289642532123, -7.808849188999943 ], [ 109.735281705532103, -7.808846783999968 ], [ 109.735273714532141, -7.808844592999947 ], [ 109.735266051532122, -7.808842769999956 ], [ 109.735250583532107, -7.808839654999929 ], [ 109.735227255532109, -7.808835332999934 ], [ 109.73519225653213, -7.808828060999929 ], [ 109.735176545532127, -7.808825087999935 ], [ 109.735137181532096, -7.808818018999943 ], [ 109.735129337532115, -7.808816470999943 ], [ 109.735115936532125, -7.80881355899993 ], [ 109.735102621532135, -7.808810287999961 ], [ 109.735094827532137, -7.808808177999936 ], [ 109.735056041532133, -7.808796866999955 ], [ 109.735040786532139, -7.808792706999952 ], [ 109.735024653532108, -7.808788608999976 ], [ 109.735007658532098, -7.808784525999954 ], [ 109.734941482532136, -7.808769147999953 ], [ 109.734925409532096, -7.808764872999973 ], [ 109.734900732532097, -7.808757860999947 ], [ 109.734877799532129, -7.808751894999943 ], [ 109.734862427532121, -7.808748222999952 ], [ 109.734825244532104, -7.808739827999943 ], [ 109.734759478532126, -7.808724243999961 ], [ 109.734734951532133, -7.808718832999944 ], [ 109.734718523532095, -7.808715658999972 ], [ 109.734701383532141, -7.808712942999932 ], [ 109.734684175532109, -7.80871061199997 ], [ 109.734652515532119, -7.808706718999929 ], [ 109.734620552532149, -7.80870320799994 ], [ 109.734534429532133, -7.808694715999934 ], [ 109.734519173532149, -7.808693066999979 ], [ 109.73451157853215, -7.808692109999981 ], [ 109.734503306532147, -7.808690901999967 ], [ 109.734495081532103, -7.808689514999969 ], [ 109.734486916532106, -7.808687931999941 ], [ 109.734478828532147, -7.808686121999926 ], [ 109.734470838532118, -7.808684033999953 ], [ 109.7344629765321, -7.808681599999943 ], [ 109.734455652532134, -7.808678932999953 ], [ 109.734433965532119, -7.80867021399996 ], [ 109.734426637532138, -7.808667586999945 ], [ 109.734419558532139, -7.808665429999962 ], [ 109.734412375532102, -7.808663551999928 ], [ 109.734405113532105, -7.808661873999938 ], [ 109.734357461532127, -7.808652060999975 ], [ 109.734323344532143, -7.808644424999954 ], [ 109.734306337532146, -7.808640338999965 ], [ 109.734290437532096, -7.808636259999957 ], [ 109.73427459053211, -7.808631978999927 ], [ 109.73425879853211, -7.808627504999947 ], [ 109.734243086532118, -7.808622769999943 ], [ 109.734218093532107, -7.808614490999958 ], [ 109.734193280532125, -7.808605702999955 ], [ 109.734168685532111, -7.80859645299995 ], [ 109.734152544532108, -7.808589799999936 ], [ 109.734144613532138, -7.80858620999993 ], [ 109.734136820532129, -7.808582360999935 ], [ 109.734129977532135, -7.808578650999948 ], [ 109.734102868532105, -7.808562795999933 ], [ 109.734068022532099, -7.808542988999932 ], [ 109.734054352532112, -7.808534623999947 ], [ 109.734047478532105, -7.808530083999926 ], [ 109.734020412532132, -7.80851127699998 ], [ 109.734013566532113, -7.808506721999947 ], [ 109.734006607532095, -7.808502364999981 ], [ 109.733999241532118, -7.808498132999944 ], [ 109.733991730532139, -7.808494165999946 ], [ 109.733984096532097, -7.808490442999926 ], [ 109.733976349532114, -7.808486960999971 ], [ 109.733968493532146, -7.808483740999975 ], [ 109.733961439532109, -7.808481130999951 ], [ 109.733954305532123, -7.808478744999945 ], [ 109.733947098532113, -7.808476585999927 ], [ 109.733939820532115, -7.808474667999974 ], [ 109.733932016532108, -7.808472907999942 ], [ 109.733916242532146, -7.808470006999926 ], [ 109.733900343532142, -7.808467561999976 ], [ 109.733809452532128, -7.808454365999978 ], [ 109.733783067532116, -7.808450702999949 ], [ 109.733765436532124, -7.808448694999981 ], [ 109.733758169532123, -7.808448047999946 ], [ 109.733743606532144, -7.808447046999959 ], [ 109.733729017532099, -7.808446366999931 ], [ 109.733686801532102, -7.808445216999928 ], [ 109.733669939532106, -7.808444380999958 ], [ 109.733661534532146, -7.808443760999978 ], [ 109.733653157532117, -7.808442959999979 ], [ 109.733644818532142, -7.80844191999995 ], [ 109.733637618532114, -7.808440780999945 ], [ 109.733630459532108, -7.808439422999982 ], [ 109.733623346532127, -7.808437850999951 ], [ 109.733616286532097, -7.808436054999959 ], [ 109.733608919532131, -7.808433914999966 ], [ 109.733594345532097, -7.808429036999939 ], [ 109.733579936532138, -7.808423589999961 ], [ 109.733565678532116, -7.808417696999925 ], [ 109.733549627532128, -7.808410490999961 ], [ 109.733533708532107, -7.808402961999946 ], [ 109.733478622532132, -7.808375913999953 ], [ 109.733454948532099, -7.808364537999978 ], [ 109.7334394145321, -7.808357478999937 ], [ 109.733424133532097, -7.808350946999951 ], [ 109.7334164415321, -7.808347811999965 ], [ 109.733400935532146, -7.808341870999925 ], [ 109.73339274353215, -7.808338983999931 ], [ 109.733384502532104, -7.808336240999949 ], [ 109.733367898532109, -7.808331131999978 ], [ 109.73335114053215, -7.808326566999938 ], [ 109.73334317753212, -7.808324644999971 ], [ 109.733327158532134, -7.808321160999981 ], [ 109.733311059532141, -7.808318008999947 ], [ 109.733295742532121, -7.808315231999927 ], [ 109.733213307532097, -7.808301262999976 ], [ 109.733198180532113, -7.80829856899993 ], [ 109.733181130532117, -7.808294960999945 ], [ 109.733155631532114, -7.808289216999981 ], [ 109.733147108532094, -7.808287462999942 ], [ 109.73313855153215, -7.808285911999974 ], [ 109.733130128532096, -7.808284650999951 ], [ 109.733121669532139, -7.808283617999962 ], [ 109.733113182532136, -7.808282772999974 ], [ 109.733096152532099, -7.808281569999963 ], [ 109.733079557532122, -7.808280950999972 ], [ 109.733062935532146, -7.808280657999944 ], [ 109.732990612532106, -7.808280406999927 ], [ 109.732942608532099, -7.808280583999931 ], [ 109.732927253532139, -7.80828089399995 ], [ 109.732912653532097, -7.808281435999959 ], [ 109.73289806153214, -7.808282210999948 ], [ 109.732883097532138, -7.808283262999964 ], [ 109.73286777053211, -7.808284674999925 ], [ 109.732860121532113, -7.808285542999954 ], [ 109.732844682532132, -7.808287671999949 ], [ 109.732802770532103, -7.808294396999941 ], [ 109.7327942245321, -7.808295535999946 ], [ 109.732785679532142, -7.80829642499998 ], [ 109.732777136532107, -7.808296950999932 ], [ 109.73276972753213, -7.808297029999949 ], [ 109.732762334532097, -7.808296772999938 ], [ 109.732754970532099, -7.808296198999926 ], [ 109.732747650532147, -7.808295308999959 ], [ 109.732740395532133, -7.80829407899995 ], [ 109.732733228532098, -7.80829246299993 ], [ 109.732725153532115, -7.808290085999943 ], [ 109.732717225532113, -7.80828721599994 ], [ 109.732709447532116, -7.808283918999962 ], [ 109.732701835532126, -7.808280221999951 ], [ 109.732694419532109, -7.808276114999956 ], [ 109.732687269532121, -7.808271614999967 ], [ 109.732680294532102, -7.808266789999948 ], [ 109.732673443532136, -7.808261736999953 ], [ 109.732659962532139, -7.808251225999925 ], [ 109.732633293532118, -7.808229815999937 ], [ 109.732620110532096, -7.808219006999934 ], [ 109.732607200532144, -7.808207790999973 ], [ 109.732581809532135, -7.80818469299993 ], [ 109.732575335532104, -7.808179074999941 ], [ 109.732568510532147, -7.808173434999958 ], [ 109.73256156753213, -7.80816793799994 ], [ 109.732547430532136, -7.808157255999959 ], [ 109.732533049532108, -7.80814689999994 ], [ 109.732518443532129, -7.808136899999965 ], [ 109.732511031532127, -7.808132091999937 ], [ 109.732504278532147, -7.808127917999968 ], [ 109.732497434532107, -7.808123916999932 ], [ 109.732490487532132, -7.808120124999959 ], [ 109.732483413532137, -7.808116593999955 ], [ 109.732476164532116, -7.808113351999964 ], [ 109.73246879753215, -7.808110357999965 ], [ 109.732461342532147, -7.808107543999938 ], [ 109.732446268532115, -7.808102255999927 ], [ 109.732421580532119, -7.808094147999952 ], [ 109.732405017532145, -7.808089041999949 ], [ 109.732388340532125, -7.808084356999927 ], [ 109.732371284532135, -7.808080232999941 ], [ 109.732354140532109, -7.808076489999962 ], [ 109.732328667532116, -7.808071163999955 ], [ 109.73232034653212, -7.80806952599994 ], [ 109.732311998532126, -7.808068067999955 ], [ 109.732303951532131, -7.808066908999933 ], [ 109.732295871532145, -7.808065951999936 ], [ 109.732279643532095, -7.808064471999955 ], [ 109.732263360532116, -7.808063381999943 ], [ 109.732238880532137, -7.808062287999974 ], [ 109.732208170532104, -7.808061753999937 ], [ 109.732152485532097, -7.808061626999972 ], [ 109.732135209532103, -7.80806174099996 ], [ 109.732117940532149, -7.808062039999982 ], [ 109.73209491553213, -7.808062924999945 ], [ 109.732079587532112, -7.808063871999934 ], [ 109.732063454532138, -7.808065289999945 ], [ 109.732046516532094, -7.808067191999953 ], [ 109.732004197532106, -7.808072418999927 ], [ 109.731987240532149, -7.808074199999965 ], [ 109.731970947532105, -7.808075431999953 ], [ 109.731962791532126, -7.808075858999928 ], [ 109.731946004532134, -7.808076282999934 ], [ 109.731937379532113, -7.80807624299996 ], [ 109.731928759532096, -7.808076018999941 ], [ 109.731920151532123, -7.808075582999948 ], [ 109.731905470532141, -7.808074317999967 ], [ 109.731890832532102, -7.808072601999982 ], [ 109.73187544553214, -7.80807047899998 ], [ 109.731867391532106, -7.808069201999956 ], [ 109.731859387532111, -7.808067735999941 ], [ 109.731851454532105, -7.808065997999961 ], [ 109.731844082532135, -7.808064048999938 ], [ 109.731836793532139, -7.808061811999949 ], [ 109.731829591532133, -7.80805930899993 ], [ 109.731822483532099, -7.808056544999943 ], [ 109.731815483532117, -7.808053507999944 ], [ 109.731808266532099, -7.808050011999967 ], [ 109.731801162532136, -7.808046254999965 ], [ 109.7317941515321, -7.80804229499995 ], [ 109.731780351532123, -7.808033917999978 ], [ 109.731772929532113, -7.808029143999931 ], [ 109.731758234532109, -7.808019330999969 ], [ 109.731723977532127, -7.807995674999972 ], [ 109.73169318253214, -7.807973610999966 ], [ 109.731680343532119, -7.807965046999925 ], [ 109.731661486532133, -7.807953052999949 ], [ 109.731649742532127, -7.807945777999976 ], [ 109.731636794532122, -7.807938102999969 ], [ 109.731622597532137, -7.807930104999969 ], [ 109.731565614532101, -7.807899311999961 ], [ 109.731553419532148, -7.807892955999932 ], [ 109.731546715532104, -7.807889733999957 ], [ 109.731533129532139, -7.807883679999975 ], [ 109.731517359532134, -7.807877252999958 ], [ 109.731509358532108, -7.807874359999971 ], [ 109.731500967532114, -7.80787167799997 ], [ 109.731483943532126, -7.807866976999946 ], [ 109.731458173532147, -7.807860472999948 ], [ 109.731443655532146, -7.807856630999936 ], [ 109.731388293532135, -7.807841200999974 ], [ 109.731371433532118, -7.807836675999965 ], [ 109.731354494532141, -7.807832508999979 ], [ 109.731337385532143, -7.807828881999967 ], [ 109.731320192532124, -7.807825645999969 ], [ 109.731303292532132, -7.807822726999973 ], [ 109.731286347532105, -7.807820116999949 ], [ 109.73127785353212, -7.807818982999947 ], [ 109.73122429553213, -7.807813291999935 ], [ 109.731174302532125, -7.807807127999979 ], [ 109.731156952532118, -7.807805470999938 ], [ 109.731148925532139, -7.807804957999963 ], [ 109.731132846532105, -7.807804345999955 ], [ 109.731109567532101, -7.807804137999938 ], [ 109.731088044532115, -7.807804568999927 ], [ 109.731079141532135, -7.807804976999932 ], [ 109.731070263532118, -7.807805574999975 ], [ 109.731061421532118, -7.807806419999963 ], [ 109.731052930532101, -7.807807503999925 ], [ 109.731027595532126, -7.807811239999978 ], [ 109.731019160532142, -7.807812222999928 ], [ 109.73101071653214, -7.807812840999929 ], [ 109.731003110532143, -7.807812991999981 ], [ 109.730995488532145, -7.807812844999944 ], [ 109.730964661532099, -7.80781146299995 ], [ 109.730933133532133, -7.807810835999931 ], [ 109.730917391532117, -7.807810189999941 ], [ 109.730909553532129, -7.807809584999973 ], [ 109.730900727532131, -7.807808572999932 ], [ 109.730891952532104, -7.807807225999966 ], [ 109.730883239532105, -7.807805559999963 ], [ 109.730874605532122, -7.807803557999932 ], [ 109.730866073532141, -7.807801170999937 ], [ 109.730857698532148, -7.807798369999944 ], [ 109.730849419532106, -7.807795234999958 ], [ 109.730833040532119, -7.807788341999981 ], [ 109.730744583532115, -7.807748318999927 ], [ 109.730729498532142, -7.807741170999975 ], [ 109.730722044532129, -7.807737458999952 ], [ 109.730707301532121, -7.807729734999953 ], [ 109.730700018532119, -7.807725722999976 ], [ 109.730685679532101, -7.807717332999971 ], [ 109.730678661532139, -7.80771290499996 ], [ 109.730671519532123, -7.807708122999941 ], [ 109.73065043153214, -7.807693298999936 ], [ 109.730643349532116, -7.80768846899997 ], [ 109.730636152532114, -7.80768384199996 ], [ 109.730628608532143, -7.807679397999948 ], [ 109.730620898532109, -7.807675266999979 ], [ 109.730613031532144, -7.807671458999948 ], [ 109.73060500253213, -7.807668013999944 ], [ 109.730597800532124, -7.807665310999937 ], [ 109.730590494532137, -7.807662858999947 ], [ 109.730583108532144, -7.80766059299998 ], [ 109.730568184532117, -7.807656418999954 ], [ 109.730511920532095, -7.807641862999958 ], [ 109.730461797532101, -7.807629256999974 ], [ 109.730416309532146, -7.807617103999974 ], [ 109.730401054532095, -7.807613384999968 ], [ 109.730377511532097, -7.807608380999966 ], [ 109.730361745532107, -7.807605379999927 ], [ 109.730345931532113, -7.807602654999926 ], [ 109.730329720532112, -7.807600266999941 ], [ 109.730313111532112, -7.80759827299994 ], [ 109.730296458532123, -7.807596686999943 ], [ 109.730288117532112, -7.807596067999953 ], [ 109.730249810532101, -7.807594108999979 ], [ 109.730234441532119, -7.807593008999959 ], [ 109.730219120532141, -7.807591558999945 ], [ 109.730204806532143, -7.807589831999962 ], [ 109.730191531532128, -7.807587724999962 ], [ 109.730184954532106, -7.807586397999955 ], [ 109.730177502532129, -7.807584601999963 ], [ 109.730170104532149, -7.807582554999954 ], [ 109.730162750532102, -7.807580314999939 ], [ 109.730148134532115, -7.80757542799995 ], [ 109.73012451953214, -7.807566805999954 ], [ 109.730093182532144, -7.807554762999928 ], [ 109.730069794532099, -7.807545429999948 ], [ 109.730054926532105, -7.80753920099994 ], [ 109.730040754532141, -7.807533031999981 ], [ 109.730003187532148, -7.807516330999931 ], [ 109.729978701532119, -7.807505244999959 ], [ 109.729962516532126, -7.807497568999963 ], [ 109.729940738532108, -7.807486467999979 ], [ 109.72992636253214, -7.807478780999929 ], [ 109.729912074532095, -7.807470925999951 ], [ 109.729879522532102, -7.807452453999929 ], [ 109.729865997532116, -7.807445008999935 ], [ 109.729830734532143, -7.807426243999942 ], [ 109.729815698532107, -7.807418853999934 ], [ 109.729808048532121, -7.807415478999928 ], [ 109.729800190532117, -7.807412371999931 ], [ 109.729792224532119, -7.807409524999969 ], [ 109.729784177532125, -7.807406882999942 ], [ 109.729767905532142, -7.807402070999956 ], [ 109.729751336532118, -7.807397766999941 ], [ 109.729742942532098, -7.807395779999979 ], [ 109.729726079532114, -7.807392099999959 ], [ 109.729709126532114, -7.807388848999949 ], [ 109.729692155532135, -7.807386120999979 ], [ 109.729675125532097, -7.807383734999974 ], [ 109.729649526532128, -7.807380527999953 ], [ 109.729623808532111, -7.807377751999979 ], [ 109.729597905532117, -7.80737546499995 ], [ 109.729571975532124, -7.807373668999958 ], [ 109.729555382532126, -7.807372941999972 ], [ 109.729531538532129, -7.807372464999958 ], [ 109.729499282532132, -7.807372276999956 ], [ 109.729448879532143, -7.807372268999927 ], [ 109.72939933153215, -7.807372624999971 ], [ 109.729382884532143, -7.807372973999975 ], [ 109.729350279532142, -7.807373986999949 ], [ 109.729334213532141, -7.807374154999934 ], [ 109.729326214532094, -7.807373993999931 ], [ 109.729318248532095, -7.807373579999933 ], [ 109.729310325532097, -7.80737282399997 ], [ 109.729301684532132, -7.807371524999951 ], [ 109.72929308653211, -7.807369847999951 ], [ 109.729259774532139, -7.807362122999962 ], [ 109.729229386532111, -7.807355365999967 ], [ 109.72921425053211, -7.80735171699996 ], [ 109.729206055532146, -7.807349516999977 ], [ 109.729189801532144, -7.807344645999933 ], [ 109.729181752532114, -7.807341967999946 ], [ 109.729166921532126, -7.807336545999931 ], [ 109.729152226532122, -7.80733074799997 ], [ 109.729131794532137, -7.807322247999934 ], [ 109.72911882953214, -7.807316409999942 ], [ 109.729112144532124, -7.807313159999978 ], [ 109.729098908532094, -7.807306378999954 ], [ 109.729076224532108, -7.807294332999959 ], [ 109.729038645532128, -7.80727331099996 ], [ 109.729022813532097, -7.807265339999958 ], [ 109.72900125553214, -7.807255140999928 ], [ 109.728987620532124, -7.807248930999947 ], [ 109.728957576532096, -7.807235759999969 ], [ 109.72893414153215, -7.807225145999951 ], [ 109.728919093532127, -7.807218655999975 ], [ 109.728903898532124, -7.807212590999939 ], [ 109.728896229532111, -7.807209793999959 ], [ 109.728888494532114, -7.807207219999952 ], [ 109.728880787532106, -7.80720495099996 ], [ 109.728873012532134, -7.80720294799994 ], [ 109.728865177532114, -7.807201207999981 ], [ 109.728857285532129, -7.807199751999974 ], [ 109.728850202532115, -7.807198709999966 ], [ 109.72884308453213, -7.807197882999958 ], [ 109.728828772532111, -7.807196766999937 ], [ 109.728812190532111, -7.80719622099997 ], [ 109.728803882532148, -7.807196167999962 ], [ 109.728786596532146, -7.807196380999926 ], [ 109.728763282532114, -7.80719698799993 ], [ 109.72908155353214, -7.806439000999944 ], [ 109.729593552532108, -7.804301 ], [ 109.730041553532104, -7.802163 ], [ 109.73023355453212, -7.801407998999935 ], [ 109.730553552532129, -7.800025 ], [ 109.730874553532104, -7.798453 ], [ 109.731257553532103, -7.796818000999963 ], [ 109.731642552532108, -7.795946 ], [ 109.732072553532149, -7.795866000999979 ], [ 109.732445553532116, -7.79422 ], [ 109.732784553532113, -7.793047 ], [ 109.733040553532149, -7.792041 ], [ 109.733297553532125, -7.790809 ], [ 109.733549553532114, -7.789561 ], [ 109.734051553532098, -7.787810000999968 ], [ 109.734426553532117, -7.785965 ], [ 109.734580553532126, -7.785397000999978 ], [ 109.73325055353213, -7.784992 ], [ 109.73315255353215, -7.784553000999949 ], [ 109.734806553532124, -7.784675000999925 ], [ 109.735079553532117, -7.785084000999973 ], [ 109.735312552532108, -7.785106 ], [ 109.735335553532096, -7.78511 ] ] ] } }
]
}
