{
"type": "FeatureCollection",
"name": "curah_hujan",
"features": [
{ "type": "Feature", "properties": { "Id": 1, "gridcode": 1, "bobot": 10.0, "total": 0.1 }, "geometry": { "type": "Polygon", "coordinates": [ [ [ 109.739204261892098, -7.80988855271795 ], [ 109.737677508535114, -7.809494861433848 ], [ 109.735870819951629, -7.809054425703835 ], [ 109.734353969854055, -7.80858464482003 ], [ 109.732085205503267, -7.808065374190164 ], [ 109.728786596532188, -7.807196380999926 ], [ 109.729080345920238, -7.806463188093574 ], [ 109.730127101318146, -7.801569317549536 ], [ 109.730664965947767, -7.799256037428677 ], [ 109.731257553532089, -7.796818000999906 ], [ 109.731642552532094, -7.795946 ], [ 109.732072553532248, -7.795866000999922 ], [ 109.732784553532156, -7.793047 ], [ 109.7328248527553, -7.792784675902794 ], [ 109.733772918905004, -7.78854912954597 ], [ 109.733986292104476, -7.787760079397913 ], [ 109.734547240084453, -7.785414138984152 ], [ 109.734328257647292, -7.785307900046803 ], [ 109.733250553532173, -7.784992 ], [ 109.73315255353225, -7.784553000999949 ], [ 109.73480655353211, -7.784675000999925 ], [ 109.735079553532159, -7.785084000999916 ], [ 109.736057553532248, -7.784957 ], [ 109.737118554532174, -7.785120000999882 ], [ 109.736851426806197, -7.78572395380354 ], [ 109.73748455353217, -7.785784000999911 ], [ 109.737693204973937, -7.785418024344892 ], [ 109.739238553532175, -7.78553699899993 ], [ 109.740582553532192, -7.785827 ], [ 109.74047481221271, -7.786298374144963 ], [ 109.742126553532216, -7.7869140009999 ], [ 109.742989553532027, -7.786281 ], [ 109.743362554532098, -7.786507000999961 ], [ 109.743490576577699, -7.787428020170751 ], [ 109.743290553532063, -7.787989000999858 ], [ 109.744190553532121, -7.788166000999922 ], [ 109.743780005758026, -7.79008488300974 ], [ 109.743607553532172, -7.790721000999952 ], [ 109.744697553532149, -7.791048000999979 ], [ 109.7444039773128, -7.791727477721622 ], [ 109.743455553532215, -7.791519998999888 ], [ 109.743415905192705, -7.791670787213604 ], [ 109.742879894185705, -7.794287427992685 ], [ 109.742047422139933, -7.797390712965694 ], [ 109.74137799013306, -7.799788398237979 ], [ 109.740872739827807, -7.802600445967471 ], [ 109.740207553532059, -7.80517099899987 ], [ 109.739888972412359, -7.808721054299724 ], [ 109.739685577392947, -7.809966507668776 ], [ 109.739204261892098, -7.80988855271795 ] ] ] } }
]
}
