{
"type": "FeatureCollection",
"name": "dusun",
"crs": { "type": "name", "properties": { "name": "urn:ogc:def:crs:OGC:1.3:CRS84" } },
"features": [
{ "type": "Feature", "properties": { "Dusun": "Karangjiad", "Id": 0 }, "geometry": { "type": "Polygon", "coordinates": [ [ [ 109.732342167370874, -7.794676229825538 ], [ 109.737493089500745, -7.796111222950519 ], [ 109.739996611848781, -7.796852868446995 ], [ 109.740077013000089, -7.797401017999855 ], [ 109.742010553532239, -7.797923 ], [ 109.741557553532246, -7.798865000999904 ], [ 109.741396553532255, -7.799888999999898 ], [ 109.741354552532201, -7.800065 ], [ 109.741110667302351, -7.801127924817928 ], [ 109.740969918031638, -7.801783149688105 ], [ 109.740866554532161, -7.802414000999927 ], [ 109.740786554532136, -7.80304699999988 ], [ 109.740711552532119, -7.803415000999959 ], [ 109.740428553532254, -7.804329000999924 ], [ 109.740267553532263, -7.804876000999966 ], [ 109.740207553532073, -7.805170998999874 ], [ 109.740231553532126, -7.805831000999939 ], [ 109.740162553532073, -7.805978 ], [ 109.740046476082242, -7.807114808317633 ], [ 109.739993553532159, -7.807504999999876 ], [ 109.739932553532256, -7.808258 ], [ 109.73987255453217, -7.808837000999965 ], [ 109.739791553532157, -7.809156 ], [ 109.739777553532193, -7.809466999999868 ], [ 109.739684563532151, -7.809977927999959 ], [ 109.739393551532046, -7.809867926999917 ], [ 109.739339410532139, -7.809844829999967 ], [ 109.739287783532191, -7.809836311999951 ], [ 109.739205126564698, -7.809834224513001 ], [ 109.739084000532117, -7.80982951499993 ], [ 109.738975148532191, -7.809814981999984 ], [ 109.738845491532189, -7.80978993099995 ], [ 109.738770987532249, -7.809763010999969 ], [ 109.738672355663155, -7.809717255136318 ], [ 109.738617150532221, -7.809690283999892 ], [ 109.738546720532057, -7.809647810999936 ], [ 109.738488171532097, -7.809607670999976 ], [ 109.738441010532213, -7.809581960999885 ], [ 109.738399435532259, -7.809571195999975 ], [ 109.738330573532224, -7.809568997999979 ], [ 109.738102610532124, -7.809572592999934 ], [ 109.738022880532256, -7.809576970999903 ], [ 109.737980160532075, -7.809569575999943 ], [ 109.737917164532192, -7.809548070999931 ], [ 109.737681827532199, -7.809450562999931 ], [ 109.737520140532197, -7.809392456999949 ], [ 109.737451869532165, -7.809378105999893 ], [ 109.737403662661521, -7.809372874297373 ], [ 109.737341295532261, -7.809365344999893 ], [ 109.737236973532177, -7.809350147999957 ], [ 109.73713764653219, -7.809344865999898 ], [ 109.737083047532181, -7.809343480999863 ], [ 109.737030703532142, -7.809327657999979 ], [ 109.736961593428376, -7.809299939866328 ], [ 109.736897376532184, -7.809273498999967 ], [ 109.736693935532188, -7.809202026999968 ], [ 109.736653925532224, -7.809188668999929 ], [ 109.736604639532246, -7.8091763359999 ], [ 109.736536040532158, -7.809167273999952 ], [ 109.73642145253207, -7.80915846699992 ], [ 109.736318193532171, -7.809155499999979 ], [ 109.736238148532223, -7.809151648999896 ], [ 109.736104638532154, -7.80914465999996 ], [ 109.736080688532141, -7.809136685999939 ], [ 109.736043300532245, -7.809115431999946 ], [ 109.735882122532203, -7.808991423999878 ], [ 109.735792551532214, -7.808931056999938 ], [ 109.735762884532122, -7.808913635999935 ], [ 109.735728101532189, -7.808901102999863 ], [ 109.73566654653213, -7.808889904999883 ], [ 109.73557314398461, -7.808883590327299 ], [ 109.735495134532201, -7.808881219999934 ], [ 109.735430309532219, -7.808877561999961 ], [ 109.735361179532177, -7.808868374999916 ], [ 109.735273714532141, -7.808844592999893 ], [ 109.735176545532184, -7.80882508799988 ], [ 109.735007658532155, -7.8087845259999 ], [ 109.734877799532185, -7.808751894999945 ], [ 109.734718523532152, -7.808715658999974 ], [ 109.734620552532093, -7.808703207999951 ], [ 109.734534429532189, -7.808694715999933 ], [ 109.734486916532049, -7.808687931999891 ], [ 109.734433965532233, -7.808670213999958 ], [ 109.734375418473988, -7.808655758881849 ], [ 109.7343233445322, -7.808644424999949 ], [ 109.734193280532125, -7.808605702999946 ], [ 109.734068022532213, -7.808542988999869 ], [ 109.733976349532171, -7.808486960999979 ], [ 109.733916242532089, -7.808470006999929 ], [ 109.73386414451393, -7.808462306449374 ], [ 109.733783067532173, -7.808450702999892 ], [ 109.733743606532201, -7.808447046999953 ], [ 109.733653157532117, -7.808442959999976 ], [ 109.733608919532188, -7.80843391499991 ], [ 109.733594345532211, -7.808429036999876 ], [ 109.73353370853205, -7.808402961999952 ], [ 109.733454948532156, -7.808364537999978 ], [ 109.733400935532202, -7.808341870999862 ], [ 109.733327158532191, -7.808321160999924 ], [ 109.733266487474523, -7.808310274592318 ], [ 109.733155631532171, -7.808289216999928 ], [ 109.733096152532099, -7.808281569999967 ], [ 109.733012823074276, -7.808280484082563 ], [ 109.732942608532213, -7.808280583999935 ], [ 109.732912653532097, -7.808281435999894 ], [ 109.73280277053216, -7.808294396999949 ], [ 109.732747650532204, -7.808295308999893 ], [ 109.732701835532239, -7.808280221999902 ], [ 109.732607200532144, -7.808207790999978 ], [ 109.732483413532137, -7.808116593999957 ], [ 109.732421580532232, -7.80809414799989 ], [ 109.732354140532166, -7.80807648999997 ], [ 109.732295871532259, -7.808065951999938 ], [ 109.732208170532161, -7.808061753999871 ], [ 109.732152485532097, -7.808061626999971 ], [ 109.732046516532151, -7.808067191999958 ], [ 109.731946004532134, -7.80807628299993 ], [ 109.731890832532216, -7.808072601999988 ], [ 109.731836793532253, -7.808061811999956 ], [ 109.731758234532052, -7.808019330999907 ], [ 109.731680343532119, -7.807965046999872 ], [ 109.731605182195565, -7.807920693939538 ], [ 109.73150096753217, -7.807871677999974 ], [ 109.73144365553226, -7.807856630999934 ], [ 109.731354494532255, -7.807832508999978 ], [ 109.731224295532243, -7.807813291999925 ], [ 109.731109567532158, -7.807804137999879 ], [ 109.731010716532197, -7.807812840999872 ], [ 109.730964661532212, -7.80781146299995 ], [ 109.730866073532255, -7.807801170999873 ], [ 109.730744583532115, -7.807748318999863 ], [ 109.730700018532119, -7.80772572299998 ], [ 109.730643349532116, -7.807688468999966 ], [ 109.730568184532174, -7.807656418999902 ], [ 109.730461797532215, -7.807629256999967 ], [ 109.730401054532209, -7.807613384999967 ], [ 109.73034593153217, -7.80760265499992 ], [ 109.730249810532158, -7.807594108999985 ], [ 109.730204806532143, -7.807589831999903 ], [ 109.730162750532216, -7.807580314999935 ], [ 109.730054926532162, -7.807539200999884 ], [ 109.729962516532183, -7.807497568999906 ], [ 109.729879522532045, -7.807452453999936 ], [ 109.729830734532086, -7.807426243999944 ], [ 109.729784177532238, -7.807406882999935 ], [ 109.729709126532171, -7.807388848999887 ], [ 109.729571975532124, -7.807373668999966 ], [ 109.729350279532255, -7.807373986999893 ], [ 109.729310325532154, -7.807372823999969 ], [ 109.729259774532139, -7.807362122999959 ], [ 109.729206055532202, -7.807349516999924 ], [ 109.729152226532122, -7.807330747999962 ], [ 109.729118829532254, -7.807316409999943 ], [ 109.729076224532221, -7.807294332999951 ], [ 109.729022813532154, -7.80726533999996 ], [ 109.728957576532153, -7.807235759999916 ], [ 109.728903898532181, -7.807212590999946 ], [ 109.728873012532077, -7.807202947999933 ], [ 109.72884308453213, -7.807197882999906 ], [ 109.728803882532262, -7.807196167999908 ], [ 109.728763282532057, -7.807196987999935 ], [ 109.728847641695793, -7.806996080127823 ], [ 109.729081553532197, -7.806439000999883 ], [ 109.729144224124994, -7.806177301679605 ], [ 109.729227552026387, -7.805829341749409 ], [ 109.729361893804096, -7.805268358515097 ], [ 109.729460867025878, -7.804855066990969 ], [ 109.729593552532222, -7.804301 ], [ 109.729680834077911, -7.803884465338064 ], [ 109.729770802684371, -7.803455107188311 ], [ 109.729897095602169, -7.802852398136226 ], [ 109.72994272945796, -7.802634619194288 ], [ 109.729990909788299, -7.802404687684771 ], [ 109.730024401049619, -7.802244856977154 ], [ 109.73004839630552, -7.802136092323852 ], [ 109.730071180910855, -7.802046496958158 ], [ 109.730118293487081, -7.801861237286634 ], [ 109.730170509503992, -7.801655909475978 ], [ 109.73031663244781, -7.801048944649041 ], [ 109.730378891094588, -7.800779869072814 ], [ 109.730408924240308, -7.800650068853718 ], [ 109.730576226559847, -7.799913961182033 ], [ 109.730708986370487, -7.7992638123597 ], [ 109.730787812075349, -7.798877788613999 ], [ 109.730886354531677, -7.798402622395548 ], [ 109.730994773244461, -7.79793979083666 ], [ 109.731151875939602, -7.797269130917078 ], [ 109.731257553532103, -7.79681800099991 ], [ 109.731509102176418, -7.796248257521478 ], [ 109.731642552532108, -7.795945999999897 ], [ 109.732072553532262, -7.79586600099992 ], [ 109.732125799856718, -7.795631031821577 ], [ 109.732334236824343, -7.794711226307239 ], [ 109.73233505741986, -7.794707605124643 ], [ 109.732342167370874, -7.794676229825538 ] ] ] } },
{ "type": "Feature", "properties": { "Dusun": "Karangtengah", "Id": 0 }, "geometry": { "type": "MultiPolygon", "coordinates": [ [ [ [ 109.743087520505085, -7.793502545737411 ], [ 109.742987572625069, -7.793963442360239 ], [ 109.742966428838784, -7.794060944174668 ], [ 109.742712492715967, -7.795197514998684 ], [ 109.74255234080313, -7.795825048370905 ], [ 109.742459344353463, -7.796210944211357 ], [ 109.742290622498459, -7.796926551418954 ], [ 109.742010553532239, -7.797917051347461 ], [ 109.740077013000089, -7.797395069347334 ], [ 109.739996611848781, -7.796846919794473 ], [ 109.732342167370874, -7.794670281173027 ], [ 109.732445553532173, -7.794214051347325 ], [ 109.73278455353217, -7.793041051347435 ], [ 109.732893196912883, -7.792614116811954 ], [ 109.73301354968028, -7.792141168047022 ], [ 109.733357487380957, -7.790506236096474 ], [ 109.733549553532228, -7.789555051347366 ], [ 109.733558826701156, -7.789522706109335 ], [ 109.73339121129051, -7.790359826717992 ], [ 109.743153908707725, -7.793163479654383 ], [ 109.743087520505085, -7.793502545737411 ] ] ], [ [ [ 109.734734366204933, -7.789836742908922 ], [ 109.736303620738354, -7.790258898949014 ], [ 109.73747092454785, -7.790594813714232 ], [ 109.743324970576751, -7.792216546292263 ], [ 109.733964101435973, -7.789634494895108 ], [ 109.734734366204933, -7.789836742908922 ] ] ], [ [ [ 109.733692470217662, -7.78955840799939 ], [ 109.733748743663469, -7.789575091774639 ], [ 109.733558826701156, -7.789522706109335 ], [ 109.733692470217662, -7.78955840799939 ] ] ] ] } },
{ "type": "Feature", "properties": { "Dusun": "Krajan", "Id": 0 }, "geometry": { "type": "Polygon", "coordinates": [ [ [ 109.743291553532188, -7.792452000999902 ], [ 109.743211015520515, -7.792876908440519 ], [ 109.743155484787977, -7.793169880925973 ], [ 109.73339121129051, -7.790365775370566 ], [ 109.733558826701156, -7.789528654761845 ], [ 109.733979120792768, -7.788062649713656 ], [ 109.734728002000125, -7.788286981999817 ], [ 109.737181975000183, -7.789214018999877 ], [ 109.743358971000035, -7.790647041999921 ], [ 109.743604575670147, -7.790728742843392 ], [ 109.744697553532163, -7.791048000999981 ], [ 109.744436553532253, -7.791738999999895 ], [ 109.743455553532229, -7.791519998999894 ], [ 109.743397553532262, -7.791723999999866 ], [ 109.743324970576751, -7.792222494944771 ], [ 109.743291553532188, -7.792452000999902 ] ], [ [ 109.733832995000014, -7.789606018999955 ], [ 109.734130675587963, -7.789681420018724 ], [ 109.734134990404911, -7.78968257269058 ], [ 109.733674721714763, -7.789559615268955 ], [ 109.733832995000014, -7.789606018999955 ] ], [ [ 109.737128751311971, -7.790502295248587 ], [ 109.737957346137435, -7.790740739802625 ], [ 109.736972099753245, -7.790457215663332 ], [ 109.737128751311971, -7.790502295248587 ] ], [ [ 109.740312724546769, -7.791377604646068 ], [ 109.740846799421561, -7.791523028716085 ], [ 109.740954936981893, -7.791553550648079 ], [ 109.740761081994449, -7.791498834888555 ], [ 109.740279440794168, -7.791368605135919 ], [ 109.740312724546769, -7.791377604646068 ] ] ] } },
{ "type": "Feature", "properties": { "Dusun": "Selawen", "Id": 0 }, "geometry": { "type": "Polygon", "coordinates": [ [ [ 109.743464774114486, -7.788024458486987 ], [ 109.74375402800014, -7.788075037999933 ], [ 109.744162000000145, -7.788166001000033 ], [ 109.744189331948419, -7.788171920972283 ], [ 109.744073553532203, -7.788733 ], [ 109.743890000000206, -7.789594 ], [ 109.743607553532186, -7.790721000999955 ], [ 109.743604575670147, -7.790728742843392 ], [ 109.743358971000035, -7.790647041999921 ], [ 109.737181975000183, -7.789214018999877 ], [ 109.734728002000125, -7.788286981999817 ], [ 109.733979120792768, -7.788062649713656 ], [ 109.734051553532211, -7.78781000099996 ], [ 109.734426553532117, -7.785965 ], [ 109.734549932854193, -7.785509939405636 ], [ 109.734580553532069, -7.785397000999977 ], [ 109.733250553532187, -7.784992 ], [ 109.733152553532264, -7.784553000999954 ], [ 109.734806553532124, -7.784675000999923 ], [ 109.735079553532174, -7.785084000999914 ], [ 109.735312552532164, -7.785105999999876 ], [ 109.735335553532209, -7.78511 ], [ 109.735344554532176, -7.78511 ], [ 109.736057553532262, -7.784957 ], [ 109.737118554532188, -7.785120000999888 ], [ 109.736892552532154, -7.785687999999886 ], [ 109.737484553532184, -7.785784000999904 ], [ 109.737679553532203, -7.785417998999944 ], [ 109.739238553532189, -7.785536998999923 ], [ 109.740582553532207, -7.785827 ], [ 109.74048055253219, -7.786287000999897 ], [ 109.742129390871654, -7.786911919842674 ], [ 109.742989553532041, -7.786281 ], [ 109.743362554532112, -7.786507000999954 ], [ 109.743451553532068, -7.787413 ], [ 109.743290553532091, -7.787989000999861 ], [ 109.743464774114486, -7.788024458486987 ] ] ] } }
]
}
