{
"type": "FeatureCollection",
"name": "garis_pantai",
"crs": { "type": "name", "properties": { "name": "urn:ogc:def:crs:OGC:1.3:CRS84" } },
"features": [
{ "type": "Feature", "properties": { "Id": 1, "gridcode": 3, "bobot": 25.0, "total": 0.75 }, "geometry": { "type": "Polygon", "coordinates": [ [ [ 109.740723282532002, -7.80317435388202 ], [ 109.740607822082779, -7.803151813980286 ], [ 109.740424742279316, -7.803104893783753 ], [ 109.738320833984631, -7.802632802429383 ], [ 109.737480742279317, -7.802368893783754 ], [ 109.736301069275157, -7.80212431558246 ], [ 109.735227312225604, -7.801824523483461 ], [ 109.732520318985252, -7.801165922996706 ], [ 109.731432678093213, -7.800844370636171 ], [ 109.730747431564595, -7.800677320572085 ], [ 109.730511282532007, -7.800644353882022 ], [ 109.730511282532007, -7.800598353882021 ], [ 109.730465282531995, -7.800598353882021 ], [ 109.730419282531997, -7.800598353882021 ], [ 109.730446694175981, -7.800346054733462 ], [ 109.730860805954237, -7.798397783972211 ], [ 109.731989911667128, -7.798656212132641 ], [ 109.732967581878924, -7.79893914824123 ], [ 109.734675202728539, -7.799355433860965 ], [ 109.735132902588148, -7.799472733913608 ], [ 109.735888967926286, -7.799657048278995 ], [ 109.736927822784679, -7.799931813804812 ], [ 109.737986742279318, -7.800160893959231 ], [ 109.739226392303721, -7.800527386268802 ], [ 109.740705890747336, -7.800836976425356 ], [ 109.741114933899183, -7.800988964851564 ], [ 109.740937931885028, -7.801775836593813 ], [ 109.740747255371346, -7.803080652816957 ], [ 109.740745822082772, -7.803150893783753 ], [ 109.740723282532002, -7.80317435388202 ] ] ] } },
{ "type": "Feature", "properties": { "Id": 2, "gridcode": 5, "bobot": 25.0, "total": 1.25 }, "geometry": { "type": "Polygon", "coordinates": [ [ [ 109.730419282531997, -7.800588836037998 ], [ 109.730465282531995, -7.800588836037998 ], [ 109.730465282531995, -7.800634836037998 ], [ 109.730511282532007, -7.800634836037998 ], [ 109.730747431564595, -7.800667802728062 ], [ 109.731432678093213, -7.800834852792148 ], [ 109.732520318985252, -7.801156405152683 ], [ 109.735227312225604, -7.801815005639438 ], [ 109.736301069275157, -7.802114797738437 ], [ 109.737480742279317, -7.802359375939731 ], [ 109.738320833984631, -7.80262328458536 ], [ 109.740424742279316, -7.80309537593973 ], [ 109.740607822082779, -7.803142296136263 ], [ 109.740723282532002, -7.803164836037997 ], [ 109.740698478637952, -7.803443749993686 ], [ 109.740244041229502, -7.804945501260164 ], [ 109.740194742279314, -7.80590229578531 ], [ 109.740147822784678, -7.806131376290681 ], [ 109.740056742279307, -7.807006295785309 ], [ 109.739986362335458, -7.807625915841461 ], [ 109.739888972412373, -7.808721054299713 ], [ 109.739825822784681, -7.809029376290679 ], [ 109.739754368927265, -7.809614126443267 ], [ 109.739685577392834, -7.809966507668853 ], [ 109.739366742279316, -7.809857376290679 ], [ 109.7388860761111, -7.809798640939117 ], [ 109.73840074227931, -7.809581376290679 ], [ 109.737893822784685, -7.809536295785308 ], [ 109.737526742279314, -7.809397376290679 ], [ 109.737155428589134, -7.809345539956451 ], [ 109.736554849090837, -7.809171733712555 ], [ 109.736080152618669, -7.809120159188629 ], [ 109.735721472503926, -7.80890264606607 ], [ 109.735300826874038, -7.808843923348785 ], [ 109.734744202728535, -7.808729915841461 ], [ 109.734363845352433, -7.808655662789703 ], [ 109.73389274263026, -7.808477376290679 ], [ 109.733653425552632, -7.808430656838776 ], [ 109.733258412414813, -7.808295451119782 ], [ 109.732995282532002, -7.808290080850006 ], [ 109.73278265220668, -7.808294420022369 ], [ 109.732423957351941, -7.808109638100983 ], [ 109.731864607712055, -7.808064033975006 ], [ 109.731440322532919, -7.807845462380768 ], [ 109.730855822609215, -7.807788295785309 ], [ 109.730534742454793, -7.80764937629068 ], [ 109.730119822521473, -7.807558295785309 ], [ 109.729798742542528, -7.80741937629068 ], [ 109.729193330169949, -7.807327308907868 ], [ 109.728924742542532, -7.807235376290681 ], [ 109.728768514992737, -7.80718467984903 ], [ 109.729083800307535, -7.806432265817048 ], [ 109.729593041855125, -7.804304000741365 ], [ 109.730028059501919, -7.802225097787265 ], [ 109.730096362510949, -7.801944916192417 ], [ 109.730244022468824, -7.801368752435093 ], [ 109.730328202553054, -7.800957756059055 ], [ 109.730395822609211, -7.800611376115207 ], [ 109.730419282531997, -7.800588836037998 ] ] ] } }
]
}
