{
"type": "FeatureCollection",
"name": "jenis_tanah",
"features": [
{ "type": "Feature", "properties": { "Id": 1, "gridcode": 5, "bobot": 5.0, "total": 0.25 }, "geometry": { "type": "Polygon", "coordinates": [ [ [ 109.74096400000019, -7.80164470256733 ], [ 109.740838001000157, -7.802413703567197 ], [ 109.740682999000114, -7.803414703567341 ], [ 109.740239, -7.804875703567348 ], [ 109.740179, -7.805170701567306 ], [ 109.740203000000122, -7.80583070356721 ], [ 109.740134000000126, -7.805977702567304 ], [ 109.740117897582763, -7.806137555656619 ], [ 109.739904, -7.808257702567289 ], [ 109.739749, -7.809466702567306 ], [ 109.739656010000147, -7.809977630567289 ], [ 109.73949366800008, -7.80991824556736 ], [ 109.739442944000132, -7.809899590567341 ], [ 109.73938100200013, -7.809874956567342 ], [ 109.739327266000146, -7.809850103567328 ], [ 109.739293953000129, -7.809840537567254 ], [ 109.739241680000191, -7.809834809567292 ], [ 109.739132224000173, -7.809833567567296 ], [ 109.739014587000099, -7.809824684567275 ], [ 109.738921129, -7.809810344567325 ], [ 109.738831854000182, -7.809793512567353 ], [ 109.738756596000201, -7.809768793567343 ], [ 109.738678879000076, -7.809733748567282 ], [ 109.738608685000088, -7.809700147567355 ], [ 109.738518167000052, -7.809647513567256 ], [ 109.73844023200013, -7.80959534356731 ], [ 109.738398006000182, -7.809576431567336 ], [ 109.738353817000132, -7.80956948156728 ], [ 109.738090289000183, -7.809571419567192 ], [ 109.738042524000093, -7.809575611567254 ], [ 109.737976805000073, -7.809574512567337 ], [ 109.737903809000045, -7.809553878567328 ], [ 109.737735297000143, -7.809486844567289 ], [ 109.73767619900002, -7.809459848567258 ], [ 109.737508363000188, -7.809397172567344 ], [ 109.737457604000156, -7.809383715567265 ], [ 109.737337116000162, -7.809368426567346 ], [ 109.737225670000157, -7.809351975567324 ], [ 109.737149664000071, -7.809345124567358 ], [ 109.737085335000188, -7.809344830567341 ], [ 109.737039987000173, -7.809340169567349 ], [ 109.73697912489547, -7.809318066227718 ], [ 109.736838098000078, -7.809261022567341 ], [ 109.736665382000183, -7.809201729567349 ], [ 109.736592661000088, -7.809179615567359 ], [ 109.736507487000154, -7.809166976567212 ], [ 109.73635871, -7.809156288567294 ], [ 109.736176265000097, -7.809150212567317 ], [ 109.736109814000201, -7.809148857567322 ], [ 109.736067887000047, -7.809142223567278 ], [ 109.736029454000118, -7.809124555567337 ], [ 109.735879942, -7.809011814567327 ], [ 109.7357276030001, -7.808910300567277 ], [ 109.73565461000004, -7.808891922567341 ], [ 109.735596304000182, -7.808885084567351 ], [ 109.735466581000196, -7.808880922567255 ], [ 109.735367389000146, -7.8088739575673 ], [ 109.735316591000014, -7.808864929567335 ], [ 109.735261089000062, -7.808848891567266 ], [ 109.735163703000183, -7.808827763567308 ], [ 109.735074068000131, -7.80880999056734 ], [ 109.734849246000181, -7.808751597567323 ], [ 109.734689970000147, -7.808715361567238 ], [ 109.734490620000145, -7.808692769567301 ], [ 109.734458363000101, -7.80868763456732 ], [ 109.734405412000058, -7.808669916567283 ], [ 109.734328908000123, -7.808651763567298 ], [ 109.734246037000105, -7.808631681567306 ], [ 109.73416472700012, -7.808605405567278 ], [ 109.7340743150001, -7.808562498567198 ], [ 109.733978054000033, -7.80850206756736 ], [ 109.733939940000084, -7.808483443567297 ], [ 109.733887689000085, -7.808469709567248 ], [ 109.73378089900018, -7.808454068567357 ], [ 109.733700464000151, -7.80844606956731 ], [ 109.733632981000198, -7.808443463567301 ], [ 109.733565792000036, -7.808428739567319 ], [ 109.733505155000103, -7.808402664567211 ], [ 109.733426395000151, -7.8083642405673 ], [ 109.733372382000198, -7.808341573567304 ], [ 109.733322587000089, -7.80832626956726 ], [ 109.733245387535817, -7.808311240206251 ], [ 109.733101575000092, -7.808284353567274 ], [ 109.733019351370388, -7.808280308402914 ], [ 109.732884100000092, -7.808281138567281 ], [ 109.732741174000182, -7.808296732567328 ], [ 109.732711842000072, -7.808293781567329 ], [ 109.732688672000108, -7.808286918567319 ], [ 109.732665866000161, -7.808275817567278 ], [ 109.732613239437512, -7.808236341956047 ], [ 109.732539957000142, -7.80817313756728 ], [ 109.732504496000161, -7.808146602567319 ], [ 109.732475725000143, -7.808127620567348 ], [ 109.732447611000168, -7.808113054567286 ], [ 109.732417715000167, -7.808101958567306 ], [ 109.732366721587823, -7.808086007672102 ], [ 109.732313899197607, -7.808073748833351 ], [ 109.732267318000083, -7.808065654567315 ], [ 109.732199895081067, -7.808061809172159 ], [ 109.732123932000093, -7.808061329567295 ], [ 109.732066362000126, -7.808062627567324 ], [ 109.73202563294177, -7.80806603329512 ], [ 109.731958687000201, -7.808073902567344 ], [ 109.731917451000186, -7.808075985567257 ], [ 109.731891598000061, -7.80807528556727 ], [ 109.731876917000193, -7.808074020567346 ], [ 109.731846892000078, -7.808070181567302 ], [ 109.731822901000157, -7.808065700567283 ], [ 109.731793930000151, -7.808056247567322 ], [ 109.731765598000095, -7.808041997567273 ], [ 109.731729681000104, -7.808019033567348 ], [ 109.731695424000179, -7.807995377567352 ], [ 109.731651790000114, -7.807964749567304 ], [ 109.73162118900018, -7.807945480567298 ], [ 109.731608241000174, -7.807937805567292 ], [ 109.731537061000154, -7.807899014567283 ], [ 109.7315181620001, -7.80788943656728 ], [ 109.731480805000103, -7.80787406256735 ], [ 109.731399219785771, -7.807851907018915 ], [ 109.731342880000113, -7.807836378567345 ], [ 109.731291639000062, -7.807825348567292 ], [ 109.731249300000059, -7.80781868556727 ], [ 109.731145749000063, -7.807806830567358 ], [ 109.731024377000153, -7.807807206567304 ], [ 109.730966935000197, -7.807812547567323 ], [ 109.730872174000069, -7.807808275567311 ], [ 109.730804487000114, -7.807788044567303 ], [ 109.730693491000125, -7.807737161567275 ], [ 109.730592345000105, -7.807674969567302 ], [ 109.730539631, -7.807656121567334 ], [ 109.730387756000141, -7.807616806567353 ], [ 109.730301167, -7.80759996956732 ], [ 109.730190567000079, -7.807591261567325 ], [ 109.730095966000192, -7.807566508567277 ], [ 109.729950148000171, -7.807504947567338 ], [ 109.729837444000111, -7.807444711567257 ], [ 109.729779495000173, -7.807415181567308 ], [ 109.729739352000138, -7.807401773567335 ], [ 109.72966360200013, -7.807385823567358 ], [ 109.72954342200012, -7.80737337156728 ], [ 109.729370778000202, -7.807372327567293 ], [ 109.729289695000148, -7.807373282567312 ], [ 109.729200833000107, -7.80735506856729 ], [ 109.729153199000052, -7.807341670567325 ], [ 109.729083591000176, -7.807312862567358 ], [ 109.728972702000135, -7.80725484356725 ], [ 109.728890540000066, -7.807218358567354 ], [ 109.728814531000125, -7.807197585567337 ], [ 109.728734729000053, -7.807196690567253 ], [ 109.728935991171284, -7.806717369141836 ], [ 109.729053000000192, -7.806438703567324 ], [ 109.729183148479933, -7.80589523067016 ], [ 109.729444781859058, -7.804802704266137 ], [ 109.729604321271665, -7.804113044466931 ], [ 109.729772311497868, -7.803311342900258 ], [ 109.730013, -7.802162702567273 ], [ 109.730205001000058, -7.801407701567257 ], [ 109.730355348583487, -7.800757914514463 ], [ 109.730524999000068, -7.800024702567327 ], [ 109.730679639964251, -7.799267397775452 ], [ 109.730777117720606, -7.79879003155736 ], [ 109.731229000000155, -7.796817703567342 ], [ 109.731310901044651, -7.796632202325156 ], [ 109.731376010199142, -7.796484733765681 ], [ 109.73153392126261, -7.796056700683096 ], [ 109.731613999000103, -7.795945702567337 ], [ 109.732044389128419, -7.795859671813446 ], [ 109.73249696129875, -7.793882326110349 ], [ 109.732676881251109, -7.793216984618653 ], [ 109.7328248527553, -7.792784675902737 ], [ 109.733184361193423, -7.791186464202326 ], [ 109.733478027972012, -7.789804851195754 ], [ 109.733820881350368, -7.788536984221935 ], [ 109.734035546587791, -7.787756512313308 ], [ 109.734547240084453, -7.785414138984152 ], [ 109.733222000000183, -7.784991702567311 ], [ 109.733124, -7.784552703567272 ], [ 109.734773077196849, -7.78469128197429 ], [ 109.735077506823416, -7.785101955447544 ], [ 109.735277817431324, -7.785106043437395 ], [ 109.736086513994906, -7.78495726684713 ], [ 109.737080348681275, -7.785119053901042 ], [ 109.73686399900015, -7.785687702567316 ], [ 109.737456, -7.785783703567347 ], [ 109.737651000000199, -7.785417701567269 ], [ 109.740554000000202, -7.785826702567192 ], [ 109.740480616351022, -7.786013974944524 ], [ 109.74047481221271, -7.786298374144963 ], [ 109.742089605975025, -7.786909486419177 ], [ 109.742961, -7.786280702567353 ], [ 109.743334001000107, -7.786506703567341 ], [ 109.74342098323325, -7.787381920257019 ], [ 109.74326770399739, -7.787980009917646 ], [ 109.744155371355816, -7.788174863524887 ], [ 109.743890000000192, -7.789593702567288 ], [ 109.74358333406326, -7.790717882995068 ], [ 109.744671040667356, -7.791050377196768 ], [ 109.7444039773128, -7.791727477721622 ], [ 109.743412108416464, -7.791524324157194 ], [ 109.743087281390046, -7.793379545714799 ], [ 109.742837859759106, -7.794469298644458 ], [ 109.742718000000195, -7.795069703567322 ], [ 109.742387813061953, -7.796406891398703 ], [ 109.742293, -7.79682670256733 ], [ 109.741982, -7.797922702567291 ], [ 109.741529, -7.798864703567347 ], [ 109.741368, -7.79988870256733 ], [ 109.74096400000019, -7.80164470256733 ] ] ] } }
]
}
