{
"type": "FeatureCollection",
"name": "kerawanan_banjir",
"crs": { "type": "name", "properties": { "name": "urn:ogc:def:crs:OGC:1.3:CRS84" } },
"features": [
{ "type": "Feature", "properties": { "Id": 0, "Kategori": "Aman", "NEAR_FID": null, "NEAR_DIST": null }, "geometry": { "type": "Polygon", "coordinates": [ [ [ 109.728953247775408, -7.806743823483766 ], [ 109.731243516427313, -7.796787017007034 ], [ 109.731642552532108, -7.795945999999897 ], [ 109.732044293517632, -7.795867149695311 ], [ 109.732998038225404, -7.79210803105695 ], [ 109.733697018161891, -7.788947040587071 ], [ 109.734546770053683, -7.785416290638753 ], [ 109.733233002003445, -7.784985365147524 ], [ 109.733162589145095, -7.784584815301907 ], [ 109.734806553532124, -7.784675000999923 ], [ 109.735114540570137, -7.785090000291751 ], [ 109.736077019305426, -7.784965631099956 ], [ 109.737080348681289, -7.785119053901104 ], [ 109.736868124908156, -7.785688669071874 ], [ 109.737439206290517, -7.785781277671904 ], [ 109.73768819772404, -7.785424779081215 ], [ 109.739234763747007, -7.785542342386349 ], [ 109.740582553532207, -7.785827 ], [ 109.74047486654753, -7.786295711779641 ], [ 109.742126553532231, -7.786914000999902 ], [ 109.742989553532041, -7.786281 ], [ 109.743362554532112, -7.786507000999954 ], [ 109.743364109670679, -7.786522832131642 ], [ 109.743451553532068, -7.787413 ], [ 109.743326213083506, -7.787995234101051 ], [ 109.743342902875284, -7.788003142394921 ], [ 109.744160927352212, -7.788171199207683 ], [ 109.743900788702959, -7.789534070495907 ], [ 109.743549354985092, -7.790729072927946 ], [ 109.74466840660854, -7.791049572007752 ], [ 109.744418096465793, -7.791712269549415 ], [ 109.743425018516476, -7.791526968390538 ], [ 109.743111086563502, -7.793243584517374 ], [ 109.742908050061217, -7.794204428059121 ], [ 109.742501553532193, -7.79603 ], [ 109.742010553532239, -7.797923 ], [ 109.741798553532263, -7.798355 ], [ 109.741607097642387, -7.798760156411911 ], [ 109.741441820627202, -7.799609381381512 ], [ 109.740787478656173, -7.802813758414239 ], [ 109.74074322304547, -7.803119508761197 ], [ 109.74028416350167, -7.804722557302234 ], [ 109.740207553532073, -7.805170998999874 ], [ 109.740203000000136, -7.805831000999947 ], [ 109.74013074300133, -7.805998821999644 ], [ 109.739993553532159, -7.807504999999876 ], [ 109.739888972412373, -7.808721054299727 ], [ 109.73974440257912, -7.809649145931525 ], [ 109.739648964933068, -7.809630963179991 ], [ 109.739373867231805, -7.809593365578501 ], [ 109.738947223156188, -7.809367608291324 ], [ 109.737636728714349, -7.809283785669326 ], [ 109.737115125229323, -7.80892486076806 ], [ 109.736084678553269, -7.808769807573076 ], [ 109.735603324530999, -7.808601093343886 ], [ 109.735762241637659, -7.80830076805278 ], [ 109.73547321737307, -7.808164366014926 ], [ 109.735129817934947, -7.808177976689999 ], [ 109.735037433703852, -7.808469777569024 ], [ 109.734978643530567, -7.80854192376097 ], [ 109.734576188389511, -7.808233305251576 ], [ 109.733501795439466, -7.808228596681309 ], [ 109.733387268395589, -7.807866856251952 ], [ 109.733298673968548, -7.807699428467342 ], [ 109.732335733585629, -7.807737596041529 ], [ 109.731735883883815, -7.807713819707546 ], [ 109.730762005860768, -7.807416811245896 ], [ 109.730309101262506, -7.807344665054077 ], [ 109.729935062497205, -7.807213564449616 ], [ 109.729579069078639, -7.806829352443166 ], [ 109.728953247775408, -7.806743823483766 ] ] ] } },
{ "type": "Feature", "properties": { "Id": 0, "Kategori": "Sedang", "NEAR_FID": null, "NEAR_DIST": null }, "geometry": { "type": "Polygon", "coordinates": [ [ [ 109.728953247775408, -7.806743823483766 ], [ 109.729579069078639, -7.806829352443166 ], [ 109.729935062497205, -7.807213564449616 ], [ 109.730309101262506, -7.807344665054077 ], [ 109.730762005860768, -7.807416811245896 ], [ 109.731735883883815, -7.807713819707546 ], [ 109.732335733585629, -7.807737596041529 ], [ 109.733298673968548, -7.807699428467342 ], [ 109.733387268395589, -7.807866856251952 ], [ 109.733501795439466, -7.808228596681309 ], [ 109.734576188389511, -7.808233305251576 ], [ 109.734978643530567, -7.80854192376097 ], [ 109.735037433703852, -7.808469777569024 ], [ 109.735129817934947, -7.808177976689999 ], [ 109.73547321737307, -7.808164366014926 ], [ 109.735762241637659, -7.80830076805278 ], [ 109.735603324530999, -7.808601093343886 ], [ 109.736084678553269, -7.808769807573076 ], [ 109.737115125229323, -7.80892486076806 ], [ 109.737636728714349, -7.809283785669326 ], [ 109.738947223156188, -7.809367608291324 ], [ 109.739373867231805, -7.809593365578501 ], [ 109.73974440257912, -7.809649145931525 ], [ 109.739720076243501, -7.809782805529154 ], [ 109.739648964933068, -7.809780978182006 ], [ 109.739423942430065, -7.809780978182012 ], [ 109.739198919927006, -7.80978097818201 ], [ 109.739004532888274, -7.809750341573305 ], [ 109.738559347529659, -7.809640996074164 ], [ 109.738448844917073, -7.809480948177954 ], [ 109.737848784909161, -7.809480948177962 ], [ 109.737848784909161, -7.809405940676927 ], [ 109.737623762405988, -7.809405940676931 ], [ 109.737623762405988, -7.809330933175939 ], [ 109.737074205075842, -7.809250319798202 ], [ 109.736690997388749, -7.809138586822776 ], [ 109.736081279890371, -7.809073234523229 ], [ 109.735715899875814, -7.808838556818839 ], [ 109.735256197379456, -7.808773204519187 ], [ 109.734296085686552, -7.808587510137325 ], [ 109.734172929285208, -7.80853369074208 ], [ 109.733840712350869, -7.808388511812779 ], [ 109.733531024856191, -7.80832315951318 ], [ 109.733498349850962, -7.80828082816197 ], [ 109.732630934844465, -7.808173144511152 ], [ 109.732371775493235, -7.808016818605898 ], [ 109.731730844832342, -7.80794812200816 ], [ 109.731698169827055, -7.807905790656997 ], [ 109.731623162326017, -7.807905790656999 ], [ 109.731623162326017, -7.807830783156018 ], [ 109.730801662800744, -7.807719786222655 ], [ 109.730423042310022, -7.807530753151976 ], [ 109.73034803480904, -7.807530753151982 ], [ 109.730015546114842, -7.807474270910577 ], [ 109.729790307153692, -7.807338406798805 ], [ 109.729120643763522, -7.807266631432531 ], [ 109.728815209640757, -7.807083956304096 ], [ 109.728953247775408, -7.806743823483766 ] ] ] } },
{ "type": "Feature", "properties": { "Id": 0, "Kategori": "Rawan", "NEAR_FID": 0.0, "NEAR_DIST": 0.0 }, "geometry": { "type": "Polygon", "coordinates": [ [ [ 109.728815209640757, -7.807083956304096 ], [ 109.729120643763522, -7.807266631432531 ], [ 109.729790307153692, -7.807338406798805 ], [ 109.730015546114842, -7.807474270910577 ], [ 109.73034803480904, -7.807530753151982 ], [ 109.730423042310022, -7.807530753151976 ], [ 109.730801662800744, -7.807719786222655 ], [ 109.731623162326017, -7.807830783156018 ], [ 109.731623162326017, -7.807905790656999 ], [ 109.731698169827055, -7.807905790656997 ], [ 109.731730844832342, -7.80794812200816 ], [ 109.732371775493235, -7.808016818605898 ], [ 109.732630934844465, -7.808173144511152 ], [ 109.733498349850962, -7.80828082816197 ], [ 109.733531024856191, -7.80832315951318 ], [ 109.733840712350869, -7.808388511812779 ], [ 109.734296085686552, -7.808587510137325 ], [ 109.735117922355997, -7.808746460865104 ], [ 109.735715899875814, -7.808838556818839 ], [ 109.736081279890371, -7.809073234523229 ], [ 109.736690997388749, -7.809138586822776 ], [ 109.737074205075842, -7.809250319798202 ], [ 109.737623762405988, -7.809330933175939 ], [ 109.737623762405988, -7.809405940676863 ], [ 109.737848784909161, -7.809405940676876 ], [ 109.737848784909161, -7.809480948177962 ], [ 109.738448844917073, -7.809480948177954 ], [ 109.738559347529659, -7.809640996074164 ], [ 109.739004532888274, -7.809750341573305 ], [ 109.739198919927006, -7.80978097818201 ], [ 109.739720076243501, -7.809782805529154 ], [ 109.739684563532151, -7.809977927999959 ], [ 109.739621551532096, -7.809954924999949 ], [ 109.739579695532214, -7.809938813999909 ], [ 109.739522221532255, -7.809918542999928 ], [ 109.739448595532181, -7.809891284999874 ], [ 109.739371021532136, -7.809857048999896 ], [ 109.739339410532139, -7.809844829999967 ], [ 109.739287783532191, -7.809836311999951 ], [ 109.739229655281022, -7.809834324909385 ], [ 109.739145413532142, -7.809833417999926 ], [ 109.739084000532117, -7.80982951499993 ], [ 109.739017657532216, -7.80982155799989 ], [ 109.738918722532119, -7.80980495999995 ], [ 109.738800195532193, -7.809774944999949 ], [ 109.738721662532171, -7.809740735999974 ], [ 109.738675266943986, -7.809718648730429 ], [ 109.738603580532143, -7.809683009999898 ], [ 109.738546720532057, -7.809647810999936 ], [ 109.738510022287826, -7.809622727523611 ], [ 109.738461972532164, -7.809591908999886 ], [ 109.738413141532149, -7.809573388999973 ], [ 109.738365156532168, -7.809569194999874 ], [ 109.73828787754168, -7.809569121165968 ], [ 109.738225258532125, -7.809569421999929 ], [ 109.738134639532191, -7.809571238999984 ], [ 109.738071077532041, -7.809575908999926 ], [ 109.737996648532217, -7.809573287999958 ], [ 109.737917164532192, -7.809548070999931 ], [ 109.737863104532167, -7.809525378999918 ], [ 109.737780482532074, -7.809493489999968 ], [ 109.737719972532219, -7.809467066999957 ], [ 109.737634738532122, -7.809432821999954 ], [ 109.737553497532204, -7.809403157999952 ], [ 109.737520140532197, -7.809392456999949 ], [ 109.737434662532237, -7.809376070999974 ], [ 109.737365669532167, -7.809368723999901 ], [ 109.737301169661478, -7.809359218459911 ], [ 109.737236973532177, -7.809350147999957 ], [ 109.737153936532096, -7.80934484999989 ], [ 109.737090677532152, -7.809344371999944 ], [ 109.737016856124129, -7.809322068339608 ], [ 109.736962755565074, -7.809300398606744 ], [ 109.736926920532156, -7.809285984999919 ], [ 109.736810131532209, -7.809241410999966 ], [ 109.736765170708523, -7.809226830269269 ], [ 109.736693935532188, -7.809202026999968 ], [ 109.736621214532263, -7.809179912999926 ], [ 109.736570560532144, -7.809170968999977 ], [ 109.736510142532168, -7.809165117999945 ], [ 109.73642145253207, -7.80915846699992 ], [ 109.736342397964407, -7.809155805347368 ], [ 109.736282992532168, -7.809154208999932 ], [ 109.736238148532223, -7.809151648999896 ], [ 109.736146838532264, -7.809149578999888 ], [ 109.736096440532222, -7.80914252099995 ], [ 109.736050606532118, -7.809120238999982 ], [ 109.735979650854532, -7.809067178315953 ], [ 109.735908495532172, -7.8090121119999 ], [ 109.73584843253208, -7.808967418999932 ], [ 109.735770493532144, -7.808917572999967 ], [ 109.73572086153213, -7.808899283999891 ], [ 109.73566654653213, -7.808889904999883 ], [ 109.735548277532203, -7.808883173999954 ], [ 109.735495134532201, -7.808881219999934 ], [ 109.735430309532219, -7.808877561999961 ], [ 109.735361179532177, -7.808868374999916 ], [ 109.735321278532197, -7.808859288999948 ], [ 109.735289642532237, -7.808849188999939 ], [ 109.735227255532109, -7.808835332999933 ], [ 109.735192256532187, -7.808828060999929 ], [ 109.735102621532135, -7.80881028799991 ], [ 109.735040786532252, -7.808792706999945 ], [ 109.735007658532155, -7.8087845259999 ], [ 109.73492540953221, -7.808764872999981 ], [ 109.734789913630962, -7.808731455941937 ], [ 109.734701383532141, -7.808712942999927 ], [ 109.734620552532093, -7.808703207999951 ], [ 109.734570377723813, -7.808698260605238 ], [ 109.73451157853215, -7.808692109999982 ], [ 109.734470838532175, -7.80868403399996 ], [ 109.734433965532233, -7.808670213999958 ], [ 109.734382738065861, -7.808657266209029 ], [ 109.7343233445322, -7.808644424999949 ], [ 109.734258798532224, -7.808627504999948 ], [ 109.734193280532125, -7.808605702999946 ], [ 109.734152544532108, -7.808589799999937 ], [ 109.734102868532105, -7.808562795999938 ], [ 109.734054352532169, -7.808534623999889 ], [ 109.733999241532118, -7.808498132999937 ], [ 109.73394709853217, -7.808476585999928 ], [ 109.733900343532142, -7.808467561999982 ], [ 109.733809452532128, -7.808454365999919 ], [ 109.733729017532156, -7.80844636699987 ], [ 109.733653157532117, -7.808442959999976 ], [ 109.733594345532211, -7.808429036999876 ], [ 109.73353370853205, -7.808402961999952 ], [ 109.733496323057992, -7.808384605206814 ], [ 109.7334394145321, -7.808357478999928 ], [ 109.733392743532207, -7.808338983999871 ], [ 109.733343177532234, -7.808324644999973 ], [ 109.733295742532121, -7.808315231999867 ], [ 109.733236907191568, -7.808305262073636 ], [ 109.733155631532171, -7.808289216999928 ], [ 109.733079557532236, -7.80828095099997 ], [ 109.732990612532106, -7.808280406999924 ], [ 109.732867770532224, -7.808284674999917 ], [ 109.732794224532157, -7.80829553599995 ], [ 109.732747650532204, -7.808295308999893 ], [ 109.732701835532239, -7.808280221999902 ], [ 109.732659962532253, -7.808251225999921 ], [ 109.732620110532153, -7.808219006999934 ], [ 109.732561567532187, -7.808167937999936 ], [ 109.732504278532147, -7.808127917999906 ], [ 109.732446268532172, -7.808102255999921 ], [ 109.732405017532201, -7.808089041999902 ], [ 109.732354140532166, -7.80807648999997 ], [ 109.732279643532152, -7.808064471999903 ], [ 109.732208170532161, -7.808061753999871 ], [ 109.732152485532097, -7.808061626999971 ], [ 109.73209491553213, -7.808062924999884 ], [ 109.732046516532151, -7.808067191999958 ], [ 109.731987240532206, -7.808074199999905 ], [ 109.731905470532197, -7.808074317999909 ], [ 109.731844082532248, -7.808064048999875 ], [ 109.731772929532113, -7.808029143999924 ], [ 109.731723977532184, -7.807995674999907 ], [ 109.731680343532119, -7.807965046999872 ], [ 109.731622597532137, -7.80793010499992 ], [ 109.731546715532048, -7.80788973399995 ], [ 109.73150096753217, -7.807871677999974 ], [ 109.731413531074296, -7.807848234981227 ], [ 109.731337385532143, -7.807828881999967 ], [ 109.731277853532234, -7.807818982999939 ], [ 109.731224295532243, -7.807813291999925 ], [ 109.731156952532231, -7.807805470999879 ], [ 109.731088044532228, -7.807804568999926 ], [ 109.731027595532126, -7.807811239999917 ], [ 109.730933133532133, -7.807810835999879 ], [ 109.730866073532255, -7.807801170999873 ], [ 109.730787082922078, -7.807767548151734 ], [ 109.730744583532115, -7.807748318999863 ], [ 109.730707301532235, -7.807729734999953 ], [ 109.730643349532116, -7.807688468999966 ], [ 109.73059780053218, -7.807665310999933 ], [ 109.730511920532152, -7.807641862999962 ], [ 109.730461797532215, -7.807629256999967 ], [ 109.730401054532209, -7.807613384999967 ], [ 109.73034593153217, -7.80760265499992 ], [ 109.730249810532158, -7.807594108999985 ], [ 109.730191531532185, -7.80758772499991 ], [ 109.730148134532058, -7.807575427999947 ], [ 109.730093182532144, -7.807554762999922 ], [ 109.730040754532254, -7.807533031999985 ], [ 109.730003187532262, -7.807516330999936 ], [ 109.729962516532183, -7.807497568999906 ], [ 109.729926362532197, -7.807478780999867 ], [ 109.729865997532116, -7.807445008999935 ], [ 109.729830734532086, -7.807426243999944 ], [ 109.729767905532142, -7.807402070999895 ], [ 109.729742942532155, -7.807395779999919 ], [ 109.729675125532097, -7.807383734999967 ], [ 109.729649526532242, -7.807380527999888 ], [ 109.729571975532124, -7.807373668999966 ], [ 109.729531538532243, -7.807372464999959 ], [ 109.7294488795322, -7.807372268999926 ], [ 109.7293828845322, -7.807372973999978 ], [ 109.729301684532189, -7.807371524999954 ], [ 109.729229386532111, -7.807355365999975 ], [ 109.729189801532087, -7.807344645999876 ], [ 109.729152226532122, -7.807330747999962 ], [ 109.729112144532181, -7.807313159999916 ], [ 109.729038645532185, -7.807273310999911 ], [ 109.72900125553214, -7.80725514099992 ], [ 109.728972702000149, -7.807255140999922 ], [ 109.728929023000163, -7.807235759999921 ], [ 109.72889054000008, -7.807218655999912 ], [ 109.728865177532228, -7.807201207999982 ], [ 109.72884308453213, -7.807197882999906 ], [ 109.728803882532262, -7.807196167999908 ], [ 109.728751613880959, -7.807195757950858 ], [ 109.728815209640757, -7.807083956304096 ] ] ] } }
]
}
