{
"type": "FeatureCollection",
"name": "lahan_terdampak",
"crs": { "type": "name", "properties": { "name": "urn:ogc:def:crs:OGC:1.3:CRS84" } },
"features": [
{ "type": "Feature", "properties": { "Id": 0 }, "geometry": { "type": "Polygon", "coordinates": [ [ [ 109.728813912302499, -7.807008406841478 ], [ 109.729053000000206, -7.80643900099988 ], [ 109.729564999000061, -7.804300999999896 ], [ 109.730013, -7.802163 ], [ 109.730205001000073, -7.801407998999925 ], [ 109.730524999000082, -7.800024999999895 ], [ 109.730750965710129, -7.798918400119988 ], [ 109.730927178561345, -7.79810645465659 ], [ 109.732258646479536, -7.798473057809139 ], [ 109.733036730228392, -7.79868007091664 ], [ 109.733943304871687, -7.79892991432229 ], [ 109.734378746235691, -7.799036990067521 ], [ 109.734914124962145, -7.799179757727872 ], [ 109.735242490580916, -7.799272556707134 ], [ 109.735535164284684, -7.799379632452314 ], [ 109.735849253137374, -7.799486708197666 ], [ 109.736184757139213, -7.799608060708975 ], [ 109.736555953056055, -7.799707998071191 ], [ 109.737169853995582, -7.799893596029668 ], [ 109.738875927536824, -7.800329037393745 ], [ 109.741144000000205, -7.800857000999882 ], [ 109.740964000000204, -7.801644999999898 ], [ 109.740838001000171, -7.802414000999928 ], [ 109.740758001000145, -7.803046999999882 ], [ 109.740682999000128, -7.803415000999963 ], [ 109.7404, -7.804329000999927 ], [ 109.740239000000102, -7.80487600099997 ], [ 109.740179, -7.805170998999866 ], [ 109.740203000000136, -7.805831000999947 ], [ 109.74013400000014, -7.805978 ], [ 109.740024, -7.80707 ], [ 109.739965000000169, -7.807504999999875 ], [ 109.739904, -7.808258 ], [ 109.739844001000179, -7.80883700099998 ], [ 109.739763000000167, -7.809156 ], [ 109.739749, -7.80946699999987 ], [ 109.739705291215913, -7.809707155303963 ], [ 109.728813912302499, -7.807008406841478 ] ] ] } },
{ "type": "Feature", "properties": { "Id": 0 }, "geometry": { "type": "Polygon", "coordinates": [ [ [ 109.730945936781396, -7.798026377186936 ], [ 109.731062553128382, -7.797528550526868 ], [ 109.73122900000017, -7.796818000999916 ], [ 109.731613999000118, -7.795946 ], [ 109.732044000000101, -7.795866000999922 ], [ 109.732128925773694, -7.79549123448987 ], [ 109.734503667938569, -7.796119374297572 ], [ 109.734378746235691, -7.796607163803686 ], [ 109.741652017860318, -7.798604672237728 ], [ 109.741529, -7.798865000999904 ], [ 109.741464000000192, -7.799296 ], [ 109.741368, -7.799888999999887 ], [ 109.74132599900004, -7.800065 ], [ 109.741159939516209, -7.800787637362643 ], [ 109.740499909673147, -7.800622504251003 ], [ 109.739452946830696, -7.80039050680301 ], [ 109.738346497463013, -7.800093074177306 ], [ 109.737418507670796, -7.799849179424195 ], [ 109.736532158446053, -7.799623130628623 ], [ 109.736187136600293, -7.799527952188327 ], [ 109.735764782271715, -7.799379235875564 ], [ 109.735366222553139, -7.799242416867626 ], [ 109.734658332904033, -7.799046111334739 ], [ 109.730945936781396, -7.798026377186936 ] ] ] } }
]
}
