{
"type": "FeatureCollection",
"name": "pasut",
"crs": { "type": "name", "properties": { "name": "urn:ogc:def:crs:OGC:1.3:CRS84" } },
"features": [
{ "type": "Feature", "properties": { "Id": 1, "gridcode": 9, "bobot": 20.0, "total": 1.8 }, "geometry": { "type": "Polygon", "coordinates": [ [ [ 109.739648964933011, -7.80963096318 ], [ 109.73937386723189, -7.809593365578563 ], [ 109.738947223156146, -7.809367608291388 ], [ 109.737636728714278, -7.809283785669344 ], [ 109.737115125229252, -7.80892486076809 ], [ 109.736084678553226, -7.808769807573046 ], [ 109.735603324530899, -7.808601093343882 ], [ 109.735762241637744, -7.808300768052784 ], [ 109.735473217373027, -7.80816436601491 ], [ 109.73512981793489, -7.808177976689987 ], [ 109.735037433703795, -7.808469777569045 ], [ 109.73497864353044, -7.808541923760956 ], [ 109.734576188389482, -7.808233305251592 ], [ 109.734098409859001, -7.808252242539671 ], [ 109.733501795439409, -7.808228596681354 ], [ 109.73338726839566, -7.807866856251955 ], [ 109.733298673968449, -7.80769942846736 ], [ 109.732335733585501, -7.807737596041568 ], [ 109.731735883883715, -7.807713819707557 ], [ 109.730762005860655, -7.807416811245956 ], [ 109.73030910126235, -7.807344665054045 ], [ 109.72993506249729, -7.807213564449651 ], [ 109.729579069078724, -7.806829352443186 ], [ 109.72893292164332, -7.806741045577538 ], [ 109.729092090438058, -7.806286919200252 ], [ 109.729544648603365, -7.804386998519481 ], [ 109.729934063757355, -7.802541324825479 ], [ 109.730406510524475, -7.800556843304919 ], [ 109.730861237776665, -7.79840161488122 ], [ 109.731213466928523, -7.796852821462172 ], [ 109.731607191357057, -7.795950600347163 ], [ 109.732044293517518, -7.795867149695301 ], [ 109.732408357902159, -7.794264544208465 ], [ 109.732712200886652, -7.793168246792783 ], [ 109.733006128862897, -7.792072854123036 ], [ 109.733509382486588, -7.789621690228643 ], [ 109.734036037326689, -7.787744064868299 ], [ 109.734359506030216, -7.786189689321349 ], [ 109.734539932169753, -7.785396336367573 ], [ 109.733234393801354, -7.784992428933419 ], [ 109.733104615121761, -7.784582517435571 ], [ 109.734708150247911, -7.784646075372482 ], [ 109.735152592238464, -7.785125749234106 ], [ 109.736074390430261, -7.78496523909343 ], [ 109.737076246333601, -7.785114631546105 ], [ 109.736884984988819, -7.785660317954409 ], [ 109.737417654872871, -7.785814651816349 ], [ 109.737670276418825, -7.78542344655587 ], [ 109.739153884066454, -7.785533759105933 ], [ 109.740518854399824, -7.785819338640637 ], [ 109.740499776335341, -7.786300682648377 ], [ 109.742090561182067, -7.786920143762659 ], [ 109.74292382703706, -7.786317131742071 ], [ 109.743319675415336, -7.786455874903043 ], [ 109.743435414223484, -7.787342348231217 ], [ 109.743265967499198, -7.787989019250418 ], [ 109.744149905993652, -7.788157779832788 ], [ 109.743929010642873, -7.789426365252686 ], [ 109.743589563244853, -7.790721820653982 ], [ 109.744642186210854, -7.791055082474011 ], [ 109.744442393586894, -7.791737539027604 ], [ 109.743407285266088, -7.791520973409749 ], [ 109.743197549020763, -7.792837581896884 ], [ 109.742729019958048, -7.795037658479255 ], [ 109.742532464046917, -7.795787789570913 ], [ 109.742316020893099, -7.796696458932088 ], [ 109.742044525007856, -7.79773258816797 ], [ 109.741532561273161, -7.798868797984143 ], [ 109.741380813462371, -7.799821386150797 ], [ 109.740958736035935, -7.801677307909435 ], [ 109.740712090047893, -7.803316455746915 ], [ 109.740215947063405, -7.804943287365552 ], [ 109.740137943199528, -7.805919522535046 ], [ 109.740009987746092, -7.807270644132419 ], [ 109.739639036190468, -7.807255941581793 ], [ 109.739462875690535, -7.80727432720948 ], [ 109.739939458766074, -7.80742521433849 ], [ 109.739893773960617, -7.808577822889318 ], [ 109.739709673900222, -7.809457753261996 ], [ 109.739648964933011, -7.80963096318 ] ] ] } }
]
}
