{
"type": "FeatureCollection",
"name": "penggunaan_lahan",
"crs": { "type": "name", "properties": { "name": "urn:ogc:def:crs:OGC:1.3:CRS84" } },
"features": [
{ "type": "Feature", "properties": { "Id": 1, "gridcode": 7, "bobot": 5, "total": 0.35 }, "geometry": { "type": "Polygon", "coordinates": [ [ [ 109.739686232891998, -7.809686863896991 ], [ 109.73959110323807, -7.809655994512226 ], [ 109.739277362545934, -7.809528733281757 ], [ 109.738881171795811, -7.809464237493183 ], [ 109.738370700299228, -7.809333413671162 ], [ 109.737289713314979, -7.809122384435322 ], [ 109.736674025685275, -7.808911645513203 ], [ 109.736063102757413, -7.808836994512226 ], [ 109.735812363026582, -7.808772733281757 ], [ 109.735255365391694, -7.808694977269795 ], [ 109.734207740933385, -7.808336393682148 ], [ 109.733389125935517, -7.808222113896992 ], [ 109.733164473103486, -7.808113123204853 ], [ 109.732740723698583, -7.807894828435566 ], [ 109.732347362786257, -7.807827733281758 ], [ 109.731699855763395, -7.807757383153584 ], [ 109.731338102997739, -7.807639994512226 ], [ 109.730898362786263, -7.807449733281758 ], [ 109.73040901305481, -7.807330439336446 ], [ 109.730024707383123, -7.807198898381856 ], [ 109.729574102877578, -7.807135994512227 ], [ 109.729260362906416, -7.807008733281758 ], [ 109.728880200611442, -7.806885369176533 ], [ 109.72911845245882, -7.806189300695088 ], [ 109.729575362906417, -7.804237994512228 ], [ 109.730022556105581, -7.80212247458425 ], [ 109.730233015408487, -7.801301271276145 ], [ 109.730499779711693, -7.800115358953147 ], [ 109.73090976961609, -7.79815605952993 ], [ 109.731259982891999, -7.796719470922143 ], [ 109.731629835122078, -7.795957122472436 ], [ 109.732043637196512, -7.795856245183617 ], [ 109.732421198842019, -7.794206629750879 ], [ 109.732830114369364, -7.792793644033106 ], [ 109.733055504521332, -7.791824914251002 ], [ 109.733543102757423, -7.789494733762417 ], [ 109.734026368397679, -7.78777507942358 ], [ 109.734362102757416, -7.78615573388258 ], [ 109.734530648617707, -7.785406455798779 ], [ 109.73317034859177, -7.784965033906613 ], [ 109.733161897290188, -7.784550913895999 ], [ 109.734718531102146, -7.784677827495013 ], [ 109.735147395123448, -7.785124195820485 ], [ 109.73611006869217, -7.78495999391142 ], [ 109.737079461773831, -7.785130236172352 ], [ 109.736866179242099, -7.785693810266171 ], [ 109.737450262570349, -7.785779163341198 ], [ 109.73766647323319, -7.785414942548428 ], [ 109.739259222744906, -7.785544800620709 ], [ 109.740552970272986, -7.785828794009839 ], [ 109.740458306851352, -7.786290973333035 ], [ 109.742092647168121, -7.786909483110104 ], [ 109.742963741177519, -7.78628299391142 ], [ 109.743364930706946, -7.786547563798581 ], [ 109.743384077954261, -7.787485794538173 ], [ 109.74328315932938, -7.787978518445644 ], [ 109.744161085324251, -7.788171233884487 ], [ 109.743866116970977, -7.78968219327322 ], [ 109.743584542462315, -7.790705931256922 ], [ 109.744671825985876, -7.791058758557948 ], [ 109.744406150479278, -7.79173234118429 ], [ 109.743407871182399, -7.791527874288233 ], [ 109.743195300015415, -7.79283366791311 ], [ 109.742830687130891, -7.794576113561304 ], [ 109.742208869748083, -7.797126833943993 ], [ 109.741955731564488, -7.797977988591819 ], [ 109.741532550290074, -7.798850261159568 ], [ 109.740897203518827, -7.798741890508324 ], [ 109.740508494595488, -7.800639703984885 ], [ 109.741144598874058, -7.80084612088552 ], [ 109.740932793866122, -7.801787712102561 ], [ 109.740851103238072, -7.80234673328176 ], [ 109.740730789349513, -7.803208574742941 ], [ 109.740600362545933, -7.803670994512228 ], [ 109.740227322873082, -7.804903756932882 ], [ 109.740159362545924, -7.805875994512228 ], [ 109.740095103238062, -7.806378733281758 ], [ 109.74003336254593, -7.806946994512227 ], [ 109.739969103238067, -7.807512733281758 ], [ 109.739855043591461, -7.808795318151142 ], [ 109.739724224575966, -7.809305768499042 ], [ 109.739717103238064, -7.809654733281757 ], [ 109.739686232891998, -7.809686863896991 ] ] ] } }
]
}
