{
  "type": "FeatureCollection",
  "name": "rt_rw",
  "features": [
    {
      "type": "Feature",
      "properties": {
        "Id": 0,
        "Tingkat": "RT",
        "RT": "1",
        "RW": "1",
        "Label": "RT 1 RW 1 Karangtengah",
        "Dusun": null
      },
      "geometry": {
        "type": "Polygon",
        "coordinates": [
          [
            [
              109.73234216737087,
              -7.794676229825538
            ],
            [
              109.73244555353217,
              -7.794219999999831
            ],
            [
              109.73278455353217,
              -7.793047
            ],
            [
              109.73301354968028,
              -7.792147116699542
            ],
            [
              109.73318941615345,
              -7.791327386188762
            ],
            [
              109.73335748738096,
              -7.790512184748982
            ],
            [
              109.73832713670204,
              -7.791820543750471
            ],
            [
              109.73742156420981,
              -7.796120620906434
            ],
            [
              109.73234216737087,
              -7.794676229825538
            ]
          ]
        ]
      }
    },
    {
      "type": "Feature",
      "properties": {
        "Id": 0,
        "Tingkat": "RT",
        "RT": "1",
        "RW": "2",
        "Label": "RT 1 RW 2 Selawen",
        "Dusun": null
      },
      "geometry": {
        "type": "Polygon",
        "coordinates": [
          [
            [
              109.73901998300006,
              -7.786804533000012
            ],
            [
              109.7383178426078,
              -7.7895260792551
            ],
            [
              109.73832722027909,
              -7.78947970847497
            ],
            [
              109.73759408799567,
              -7.78930962654129
            ],
            [
              109.73718197500018,
              -7.789214018999877
            ],
            [
              109.73472800200013,
              -7.788286981999817
            ],
            [
              109.73397912079277,
              -7.788062649713656
            ],
            [
              109.73405155353221,
              -7.78781000099996
            ],
            [
              109.73442655353212,
              -7.785965
            ],
            [
              109.73458055353207,
              -7.785397000999977
            ],
            [
              109.73325055353219,
              -7.784992
            ],
            [
              109.73315255353226,
              -7.784553000999954
            ],
            [
              109.73480655353212,
              -7.784675000999923
            ],
            [
              109.73507955353217,
              -7.785084000999914
            ],
            [
              109.73533555353221,
              -7.78511
            ],
            [
              109.73605755353226,
              -7.784957
            ],
            [
              109.73711855453219,
              -7.785120000999888
            ],
            [
              109.73689255253215,
              -7.785687999999886
            ],
            [
              109.73748455353218,
              -7.785784000999904
            ],
            [
              109.7376795535322,
              -7.785417998999944
            ],
            [
              109.73923855353219,
              -7.785536998999923
            ],
            [
              109.73935344479192,
              -7.785561789610197
            ],
            [
              109.73901998300006,
              -7.786804533000012
            ]
          ]
        ]
      }
    },
    {
      "type": "Feature",
      "properties": {
        "Id": 0,
        "Tingkat": "RT",
        "RT": "1",
        "RW": "3",
        "Label": "RT 1 RW 3 Selawen",
        "Dusun": null
      },
      "geometry": {
        "type": "Polygon",
        "coordinates": [
          [
            [
              109.73935344479192,
              -7.785561789610197
            ],
            [
              109.7405825535322,
              -7.785827
            ],
            [
              109.74048055253219,
              -7.786287000999897
            ],
            [
              109.74212939087165,
              -7.786911919842674
            ],
            [
              109.74298955353204,
              -7.786281
            ],
            [
              109.74336255453211,
              -7.786507000999954
            ],
            [
              109.74345155353207,
              -7.787413
            ],
            [
              109.74329055353208,
              -7.787989000999858
            ],
            [
              109.74375402800014,
              -7.788075037999933
            ],
            [
              109.74418933194842,
              -7.788171920972283
            ],
            [
              109.7440735535322,
              -7.788732999999856
            ],
            [
              109.7439185535322,
              -7.789594
            ],
            [
              109.74360755353219,
              -7.790721000999955
            ],
            [
              109.74072602211108,
              -7.790036214938313
            ],
            [
              109.7383178426078,
              -7.7895260792551
            ],
            [
              109.73901998300006,
              -7.786804533000012
            ],
            [
              109.73935344479192,
              -7.785561789610197
            ]
          ]
        ]
      }
    },
    {
      "type": "Feature",
      "properties": {
        "Id": 0,
        "Tingkat": "RT",
        "RT": "2",
        "RW": "2",
        "Label": "RT 2 RW 2 Krajan",
        "Dusun": null
      },
      "geometry": {
        "type": "Polygon",
        "coordinates": [
          [
            [
              109.73759408799567,
              -7.78930962654129
            ],
            [
              109.73699649224535,
              -7.791470225138429
            ],
            [
              109.73335748738096,
              -7.790512184748982
            ],
            [
              109.73354955353223,
              -7.789560999999884
            ],
            [
              109.73397912079277,
              -7.788062649713656
            ],
            [
              109.73472800200013,
              -7.788286981999817
            ],
            [
              109.73602588052724,
              -7.788777281369909
            ],
            [
              109.73759408799567,
              -7.78930962654129
            ]
          ]
        ]
      }
    },
    {
      "type": "Feature",
      "properties": {
        "Id": 0,
        "Tingkat": "RT",
        "RT": "2",
        "RW": "3",
        "Label": "RT 2 RW 3 Krajan",
        "Dusun": null
      },
      "geometry": {
        "type": "Polygon",
        "coordinates": [
          [
            [
              109.740427917,
              -7.791388367000017
            ],
            [
              109.74072602211108,
              -7.790036214938313
            ],
            [
              109.74193728602604,
              -7.790317220308851
            ],
            [
              109.74335897100003,
              -7.790647041999921
            ],
            [
              109.74360755353219,
              -7.790721000999955
            ],
            [
              109.74469755353216,
              -7.791048000999981
            ],
            [
              109.74443655353225,
              -7.791738999999895
            ],
            [
              109.74345555353223,
              -7.791519998999894
            ],
            [
              109.74339755353226,
              -7.791723999999866
            ],
            [
              109.74332497057675,
              -7.792222494944771
            ],
            [
              109.74329155353219,
              -7.792452000999902
            ],
            [
              109.74316260956148,
              -7.793101821592358
            ],
            [
              109.7417027335821,
              -7.792714991431464
            ],
            [
              109.740927976501,
              -7.792509700426816
            ],
            [
              109.74062702442548,
              -7.792429955748958
            ],
            [
              109.74021321010294,
              -7.792321266089918
            ],
            [
              109.7402164852406,
              -7.792307245750415
            ],
            [
              109.740427917,
              -7.791388367000017
            ]
          ]
        ]
      }
    },
    {
      "type": "Feature",
      "properties": {
        "Id": 0,
        "Tingkat": "RT",
        "RT": "3",
        "RW": "2",
        "Label": "RT 3 RW 2 Krajan",
        "Dusun": null
      },
      "geometry": {
        "type": "Polygon",
        "coordinates": [
          [
            [
              109.73759408799567,
              -7.78930962654129
            ],
            [
              109.74072602211108,
              -7.790036214938313
            ],
            [
              109.740420082119,
              -7.791417760539779
            ],
            [
              109.74042897757722,
              -7.791397600112133
            ],
            [
              109.74021321010294,
              -7.792321266089918
            ],
            [
              109.73700545860477,
              -7.791473561652422
            ],
            [
              109.73759408799567,
              -7.78930962654129
            ]
          ]
        ]
      }
    },
    {
      "type": "Feature",
      "properties": {
        "Id": 0,
        "Tingkat": "RT",
        "RT": "3",
        "RW": "3",
        "Label": "RT 3 RW 3 Karangtengah",
        "Dusun": null
      },
      "geometry": {
        "type": "Polygon",
        "coordinates": [
          [
            [
              109.74316260956148,
              -7.793101821592358
            ],
            [
              109.74308752050509,
              -7.793508494389927
            ],
            [
              109.74290655353214,
              -7.794343
            ],
            [
              109.74271249271597,
              -7.795203463651201
            ],
            [
              109.7425015535322,
              -7.79603
            ],
            [
              109.7423215535322,
              -7.796827
            ],
            [
              109.7421365535322,
              -7.797458000999929
            ],
            [
              109.74201055353224,
              -7.797923
            ],
            [
              109.74007701300009,
              -7.797401017999855
            ],
            [
              109.73999661184878,
              -7.796852868446995
            ],
            [
              109.73742156420981,
              -7.796120620906434
            ],
            [
              109.7381523289048,
              -7.792650612046835
            ],
            [
              109.73832713670204,
              -7.791820543750471
            ],
            [
              109.74316260956148,
              -7.793101821592358
            ]
          ]
        ]
      }
    },
    {
      "type": "Feature",
      "properties": {
        "Id": 0,
        "Tingkat": "RW",
        "RT": null,
        "RW": "1",
        "Label": "RW 1",
        "Dusun": null
      },
      "geometry": {
        "type": "Polygon",
        "coordinates": [
          [
            [
              109.73322257698807,
              -7.791168420631501
            ],
            [
              109.7339176,
              -7.791312516999938
            ],
            [
              109.73812691700006,
              -7.792640482999967
            ],
            [
              109.73719868978425,
              -7.79602920626331
            ],
            [
              109.73999661184878,
              -7.796852868446995
            ],
            [
              109.74007701300009,
              -7.797401017999855
            ],
            [
              109.74201055353224,
              -7.797923
            ],
            [
              109.74155755353225,
              -7.798865000999904
            ],
            [
              109.74139655353225,
              -7.799888999999898
            ],
            [
              109.7413545525322,
              -7.800065
            ],
            [
              109.7411725535322,
              -7.800857000999878
            ],
            [
              109.73676320371534,
              -7.799682581127513
            ],
            [
              109.73632062396827,
              -7.799518398318122
            ],
            [
              109.73569958464573,
              -7.799311385210554
            ],
            [
              109.73517848268541,
              -7.799140064018167
            ],
            [
              109.73408631008381,
              -7.798854528697402
            ],
            [
              109.73222319211614,
              -7.798369118652201
            ],
            [
              109.73097444150962,
              -7.798026585527049
            ],
            [
              109.7312575535321,
              -7.79681800099991
            ],
            [
              109.73164255253211,
              -7.795945999999897
            ],
            [
              109.73207255353226,
              -7.79586600099992
            ],
            [
              109.73244555353217,
              -7.79421999999988
            ],
            [
              109.73278455353217,
              -7.793047
            ],
            [
              109.7330405535322,
              -7.792041
            ],
            [
              109.73322257698807,
              -7.791168420631501
            ]
          ]
        ]
      }
    },
    {
      "type": "Feature",
      "properties": {
        "Id": 0,
        "Tingkat": "RW",
        "RT": null,
        "RW": "2",
        "Label": "RW 2",
        "Dusun": null
      },
      "geometry": {
        "type": "Polygon",
        "coordinates": [
          [
            [
              109.7393121945441,
              -7.785552888856386
            ],
            [
              109.73883060616227,
              -7.787850366604407
            ],
            [
              109.73848156415558,
              -7.789515515253071
            ],
            [
              109.74076861578847,
              -7.790046096395204
            ],
            [
              109.740427917,
              -7.791388367000017
            ],
            [
              109.73868446776278,
              -7.790937344389815
            ],
            [
              109.73812691700006,
              -7.792640482999967
            ],
            [
              109.7339176,
              -7.791312516999938
            ],
            [
              109.73322257698807,
              -7.791168420631501
            ],
            [
              109.73331277666121,
              -7.790733609265652
            ],
            [
              109.73354955353223,
              -7.789560999999884
            ],
            [
              109.73405155353221,
              -7.78781000099996
            ],
            [
              109.73442655353212,
              -7.785965
            ],
            [
              109.73458055353207,
              -7.785397000999977
            ],
            [
              109.73325055353219,
              -7.784992
            ],
            [
              109.73315255353226,
              -7.784553000999954
            ],
            [
              109.73480655353212,
              -7.784675000999923
            ],
            [
              109.73507955353217,
              -7.785084000999914
            ],
            [
              109.73534455453218,
              -7.78511
            ],
            [
              109.73605755353226,
              -7.784957
            ],
            [
              109.73711855453219,
              -7.785120000999888
            ],
            [
              109.73689255253215,
              -7.785687999999886
            ],
            [
              109.73748455353218,
              -7.785784000999904
            ],
            [
              109.7376795535322,
              -7.785417998999944
            ],
            [
              109.7393121945441,
              -7.785552888856386
            ]
          ]
        ]
      }
    },
    {
      "type": "Feature",
      "properties": {
        "Id": 0,
        "Tingkat": "RW",
        "RT": null,
        "RW": "3",
        "Label": "RW 3",
        "Dusun": null
      },
      "geometry": {
        "type": "Polygon",
        "coordinates": [
          [
            [
              109.74201055353224,
              -7.797923
            ],
            [
              109.74092116953751,
              -7.797628907982194
            ],
            [
              109.74007701300009,
              -7.797401017999855
            ],
            [
              109.73999661184878,
              -7.796852868446995
            ],
            [
              109.73719868978425,
              -7.79602920626331
            ],
            [
              109.73812691700006,
              -7.792640482999967
            ],
            [
              109.73868446776278,
              -7.790937344389815
            ],
            [
              109.740427917,
              -7.791388367000017
            ],
            [
              109.74076861578847,
              -7.790046096395204
            ],
            [
              109.73848156415558,
              -7.789515515253071
            ],
            [
              109.7393121945441,
              -7.785552888856386
            ],
            [
              109.7405825535322,
              -7.785827
            ],
            [
              109.74048055253219,
              -7.786287000999897
            ],
            [
              109.74212939087165,
              -7.786911919842674
            ],
            [
              109.74298955353204,
              -7.786281
            ],
            [
              109.74336255453211,
              -7.786507000999954
            ],
            [
              109.74345155353207,
              -7.787413
            ],
            [
              109.74329055353208,
              -7.787989000999858
            ],
            [
              109.74378255353214,
              -7.788075
            ],
            [
              109.74418933194842,
              -7.788171920972283
            ],
            [
              109.7439185535322,
              -7.789594
            ],
            [
              109.74360755353219,
              -7.790721000999955
            ],
            [
              109.74469755353216,
              -7.791048000999981
            ],
            [
              109.74443655353225,
              -7.791738999999895
            ],
            [
              109.74345555353223,
              -7.791519998999894
            ],
            [
              109.74332497057675,
              -7.792222494944771
            ],
            [
              109.74320593149544,
              -7.792903731056362
            ],
            [
              109.74308752050509,
              -7.793508494389927
            ],
            [
              109.74296642883878,
              -7.794066892827173
            ],
            [
              109.7427465535322,
              -7.795070000999883
            ],
            [
              109.74245934435346,
              -7.796216892863869
            ],
            [
              109.7423215535322,
              -7.796827
            ],
            [
              109.74221065434195,
              -7.797205256756575
            ],
            [
              109.74201055353224,
              -7.797923
            ]
          ]
        ]
      }
    },
    {
      "type": "Feature",
      "properties": {
        "Id": 0,
        "Tingkat": "RT",
        "RT": "2",
        "RW": "1",
        "Label": "RT 2 RW 1 Karangjiad",
        "Dusun": "Karangjiad"
      },
      "geometry": {
        "type": "Polygon",
        "coordinates": [
          [
            [
              109.73742156420981,
              -7.796120620906434
            ],
            [
              109.73738304125648,
              -7.796272204795628
            ],
            [
              109.73683972389308,
              -7.798683723912002
            ],
            [
              109.73662831647745,
              -7.799667120311771
            ],
            [
              109.73097195907668,
              -7.798037182851601
            ],
            [
              109.7312575535321,
              -7.79681800099991
            ],
            [
              109.73164255253211,
              -7.795945999999897
            ],
            [
              109.73207255353226,
              -7.79586600099992
            ],
            [
              109.73234216737087,
              -7.794676229825538
            ],
            [
              109.73742156420981,
              -7.796120620906434
            ]
          ]
        ]
      }
    },
    {
      "type": "Feature",
      "properties": {
        "Id": 0,
        "Tingkat": "RT",
        "RT": "3",
        "RW": "1",
        "Label": "RT 3 RW 1 Karangjiad",
        "Dusun": "Karangjiad"
      },
      "geometry": {
        "type": "Polygon",
        "coordinates": [
          [
            [
              109.73662831647745,
              -7.799667120311771
            ],
            [
              109.73722146700011,
              -7.796907982999982
            ],
            [
              109.73742156420981,
              -7.796120620906434
            ],
            [
              109.73757482315571,
              -7.796135435794941
            ],
            [
              109.73999661184878,
              -7.796852868446995
            ],
            [
              109.74007701300009,
              -7.797401017999855
            ],
            [
              109.74201055353224,
              -7.797922999999978
            ],
            [
              109.74155755353225,
              -7.798865000999904
            ],
            [
              109.74139655353225,
              -7.799888999999898
            ],
            [
              109.7413545525322,
              -7.800064999999905
            ],
            [
              109.74130557987806,
              -7.800278437482443
            ],
            [
              109.73662831647745,
              -7.799667120311771
            ]
          ]
        ]
      }
    }
  ]
}