{
"type": "FeatureCollection",
"name": "titik_sampel_air",
"crs": { "type": "name", "properties": { "name": "urn:ogc:def:crs:OGC:1.3:CRS84" } },
"features": [
{ "type": "Feature", "properties": { "x": 360787.0, "y": 9139172.0, "MAT\n(mdpl)": "14,3", "Suhu": "25", "Ph": "8,5", "TDS": 150, "DHL": 307, "TDS(i)": 150, "Bakumutu(tds)": 300.0, "Ci?/Lij?\nTDS": "0,5", "Ci?/Lij? \n(Baru)\nTDS": "0,5", "Ph(i)": "8,5", "Bakumutu(tds).1": "7,5", "Ci?/Lij?\nPH": "1", "Ci?/Lij? \n(Baru)\nPH": "1", "Ci?/Lij?\nRata-rata": "0,75", "Ci?/Lij?\nMax": "1", "IP": "0,884" }, "geometry": { "type": "Point", "coordinates": [ 109.737464132655546, -7.785821329208577 ] } },
{ "type": "Feature", "properties": { "x": 360682.0, "y": 9139172.0, "MAT\n(mdpl)": "17,685", "Suhu": "25,9", "Ph": "7,66", "TDS": 145, "DHL": 295, "TDS(i)": 145, "Bakumutu(tds)": null, "Ci?/Lij?\nTDS": "0,483", "Ci?/Lij? \n(Baru)\nTDS": "0,483", "Ph(i)": "7,66", "Bakumutu(tds).1": null, "Ci?/Lij?\nPH": "0,16", "Ci?/Lij? \n(Baru)\nPH": "0,16", "Ci?/Lij?\nRata-rata": "0,322", "Ci?/Lij?\nMax": "0,483", "IP": "0,41" }, "geometry": { "type": "Point", "coordinates": [ 109.736512035855995, -7.785818493095412 ] } },
{ "type": "Feature", "properties": { "x": 360875.0, "y": 9139144.0, "MAT\n(mdpl)": "9,5", "Suhu": "25,8", "Ph": "7,72", "TDS": 114, "DHL": 228, "TDS(i)": 114, "Bakumutu(tds)": null, "Ci?/Lij?\nTDS": "0,38", "Ci?/Lij? \n(Baru)\nTDS": "0,38", "Ph(i)": "7,72", "Bakumutu(tds).1": null, "Ci?/Lij?\nPH": "0,22", "Ci?/Lij? \n(Baru)\nPH": "0,22", "Ci?/Lij?\nRata-rata": "0,3", "Ci?/Lij?\nMax": "0,38", "IP": "0,342" }, "geometry": { "type": "Point", "coordinates": [ 109.738261323159591, -7.786076920785719 ] } },
{ "type": "Feature", "properties": { "x": 360836.0, "y": 9139164.0, "MAT\n(mdpl)": "13,7", "Suhu": "25,6", "Ph": "7,5", "TDS": 92, "DHL": 187, "TDS(i)": 92, "Bakumutu(tds)": null, "Ci?/Lij?\nTDS": "0,307", "Ci?/Lij? \n(Baru)\nTDS": "0,307", "Ph(i)": "7,5", "Bakumutu(tds).1": null, "Ci?/Lij?\nPH": "0", "Ci?/Lij? \n(Baru)\nPH": "0", "Ci?/Lij?\nRata-rata": "0,153", "Ci?/Lij?\nMax": "0,307", "IP": "0,243" }, "geometry": { "type": "Point", "coordinates": [ 109.737908228112445, -7.785894999498689 ] } },
{ "type": "Feature", "properties": { "x": 361002.0, "y": 9139149.0, "MAT\n(mdpl)": "13,27", "Suhu": "25,6", "Ph": "7,81", "TDS": 212, "DHL": 423, "TDS(i)": 212, "Bakumutu(tds)": null, "Ci?/Lij?\nTDS": "0,707", "Ci?/Lij? \n(Baru)\nTDS": "0,707", "Ph(i)": "7,81", "Bakumutu(tds).1": null, "Ci?/Lij?\nPH": "0,31", "Ci?/Lij? \n(Baru)\nPH": "0,31", "Ci?/Lij?\nRata-rata": "0,508", "Ci?/Lij?\nMax": "0,707", "IP": "0,616" }, "geometry": { "type": "Point", "coordinates": [ 109.739413043596002, -7.786035129009492 ] } },
{ "type": "Feature", "properties": { "x": 361068.0, "y": 9139085.0, "MAT\n(mdpl)": "14,8", "Suhu": "26,1", "Ph": "7,33", "TDS": 120, "DHL": 240, "TDS(i)": 120, "Bakumutu(tds)": null, "Ci?/Lij?\nTDS": "0,4", "Ci?/Lij? \n(Baru)\nTDS": "0,4", "Ph(i)": "7,33", "Bakumutu(tds).1": null, "Ci?/Lij?\nPH": "0,17", "Ci?/Lij? \n(Baru)\nPH": "0,17", "Ci?/Lij?\nRata-rata": "0,285", "Ci?/Lij?\nMax": "0,4", "IP": "0,347" }, "geometry": { "type": "Point", "coordinates": [ 109.740009776116679, -7.7866156883861 ] } },
{ "type": "Feature", "properties": { "x": 361136.0, "y": 9139065.0, "MAT\n(mdpl)": "16,85", "Suhu": "27", "Ph": "7,31", "TDS": 102, "DHL": 204, "TDS(i)": 102, "Bakumutu(tds)": null, "Ci?/Lij?\nTDS": "0,34", "Ci?/Lij? \n(Baru)\nTDS": "0,34", "Ph(i)": "7,31", "Bakumutu(tds).1": null, "Ci?/Lij?\nPH": "0,19", "Ci?/Lij? \n(Baru)\nPH": "0,19", "Ci?/Lij?\nRata-rata": "0,265", "Ci?/Lij?\nMax": "0,34", "IP": "0,305" }, "geometry": { "type": "Point", "coordinates": [ 109.740625833940797, -7.78679838938876 ] } },
{ "type": "Feature", "properties": { "x": 361256.0, "y": 9138997.0, "MAT\n(mdpl)": "14,95", "Suhu": "27,3", "Ph": "7,33", "TDS": 74, "DHL": 150, "TDS(i)": 74, "Bakumutu(tds)": null, "Ci?/Lij?\nTDS": "0,247", "Ci?/Lij? \n(Baru)\nTDS": "0,247", "Ph(i)": "7,33", "Bakumutu(tds).1": null, "Ci?/Lij?\nPH": "0,17", "Ci?/Lij? \n(Baru)\nPH": "0,17", "Ci?/Lij?\nRata-rata": "0,208", "Ci?/Lij?\nMax": "0,247", "IP": "0,228" }, "geometry": { "type": "Point", "coordinates": [ 109.741712113811019, -7.78741657496831 ] } },
{ "type": "Feature", "properties": { "x": 361335.0, "y": 9138983.0, "MAT\n(mdpl)": "22", "Suhu": "26,1", "Ph": "7,97", "TDS": 65, "DHL": 130, "TDS(i)": 65, "Bakumutu(tds)": null, "Ci?/Lij?\nTDS": "0,217", "Ci?/Lij? \n(Baru)\nTDS": "0,217", "Ph(i)": "7,97", "Bakumutu(tds).1": null, "Ci?/Lij?\nPH": "0,47", "Ci?/Lij? \n(Baru)\nPH": "0,47", "Ci?/Lij?\nRata-rata": "0,343", "Ci?/Lij?\nMax": "0,47", "IP": "0,412" }, "geometry": { "type": "Point", "coordinates": [ 109.742428079821508, -7.787545308993765 ] } },
{ "type": "Feature", "properties": { "x": 361356.0, "y": 9139061.0, "MAT\n(mdpl)": "16,7", "Suhu": "27", "Ph": "7,43", "TDS": 155, "DHL": 311, "TDS(i)": 155, "Bakumutu(tds)": null, "Ci?/Lij?\nTDS": "0,517", "Ci?/Lij? \n(Baru)\nTDS": "0,517", "Ph(i)": "7,43", "Bakumutu(tds).1": null, "Ci?/Lij?\nPH": "0,07", "Ci?/Lij? \n(Baru)\nPH": "0,07", "Ci?/Lij?\nRata-rata": "0,293", "Ci?/Lij?\nMax": "0,517", "IP": "0,42" }, "geometry": { "type": "Point", "coordinates": [ 109.74262060377994, -7.786840484473056 ] } },
{ "type": "Feature", "properties": { "x": 361491.0, "y": 9139103.0, "MAT\n(mdpl)": "15,78", "Suhu": "26,4", "Ph": "6,86", "TDS": 206, "DHL": 414, "TDS(i)": 206, "Bakumutu(tds)": null, "Ci?/Lij?\nTDS": "0,687", "Ci?/Lij? \n(Baru)\nTDS": "0,687", "Ph(i)": "6,86", "Bakumutu(tds).1": null, "Ci?/Lij?\nPH": "0,64", "Ci?/Lij? \n(Baru)\nPH": "0,64", "Ci?/Lij?\nRata-rata": "0,663", "Ci?/Lij?\nMax": "0,687", "IP": "0,675" }, "geometry": { "type": "Point", "coordinates": [ 109.743845865580298, -7.78646428811076 ] } },
{ "type": "Feature", "properties": { "x": 361414.0, "y": 9138976.0, "MAT\n(mdpl)": "15,65", "Suhu": "26,1", "Ph": "7,4", "TDS": 84, "DHL": 172, "TDS(i)": 84, "Bakumutu(tds)": null, "Ci?/Lij?\nTDS": "0,28", "Ci?/Lij? \n(Baru)\nTDS": "0,28", "Ph(i)": "7,4", "Bakumutu(tds).1": null, "Ci?/Lij?\nPH": "0,1", "Ci?/Lij? \n(Baru)\nPH": "0,1", "Ci?/Lij?\nRata-rata": "0,19", "Ci?/Lij?\nMax": "0,28", "IP": "0,239" }, "geometry": { "type": "Point", "coordinates": [ 109.743144235157104, -7.787610737691827 ] } },
{ "type": "Feature", "properties": { "x": 361463.0, "y": 9138968.0, "MAT\n(mdpl)": "10,75", "Suhu": "26,4", "Ph": "6,32", "TDS": 132, "DHL": 264, "TDS(i)": 132, "Bakumutu(tds)": null, "Ci?/Lij?\nTDS": "0,44", "Ci?/Lij? \n(Baru)\nTDS": "0,44", "Ph(i)": "6,32", "Bakumutu(tds).1": null, "Ci?/Lij?\nPH": "1,18", "Ci?/Lij? \n(Baru)\nPH": "1,359", "Ci?/Lij?\nRata-rata": "0,9", "Ci?/Lij?\nMax": "1,359", "IP": "1,152" }, "geometry": { "type": "Point", "coordinates": [ 109.743588334397884, -7.787684402483915 ] } },
{ "type": "Feature", "properties": { "x": 360315.0, "y": 9139288.0, "MAT\n(mdpl)": "13,4", "Suhu": "26,9", "Ph": "5,96", "TDS": 133, "DHL": 266, "TDS(i)": 133, "Bakumutu(tds)": null, "Ci?/Lij?\nTDS": "0,443", "Ci?/Lij? \n(Baru)\nTDS": "0,443", "Ph(i)": "5,96", "Bakumutu(tds).1": null, "Ci?/Lij?\nPH": "1,54", "Ci?/Lij? \n(Baru)\nPH": "1,938", "Ci?/Lij?\nRata-rata": "1,19", "Ci?/Lij?\nMax": "1,938", "IP": "1,608" }, "geometry": { "type": "Point", "coordinates": [ 109.733187384498038, -7.784759526535911 ] } },
{ "type": "Feature", "properties": { "x": 360443.0, "y": 9139244.0, "MAT\n(mdpl)": "14,2", "Suhu": "27,1", "Ph": "5,46", "TDS": 197, "DHL": 394, "TDS(i)": 197, "Bakumutu(tds)": null, "Ci?/Lij?\nTDS": "0,657", "Ci?/Lij? \n(Baru)\nTDS": "0,657", "Ph(i)": "5,46", "Bakumutu(tds).1": null, "Ci?/Lij?\nPH": "2,04", "Ci?/Lij? \n(Baru)\nPH": "2,548", "Ci?/Lij?\nRata-rata": "1,602", "Ci?/Lij?\nMax": "2,548", "IP": "2,128" }, "geometry": { "type": "Point", "coordinates": [ 109.734346837473822, -7.785160902966365 ] } },
{ "type": "Feature", "properties": { "x": 360587.0, "y": 9139286.0, "MAT\n(mdpl)": "12,4", "Suhu": "26,1", "Ph": "5,88", "TDS": 115, "DHL": 231, "TDS(i)": 115, "Bakumutu(tds)": null, "Ci?/Lij?\nTDS": "0,383", "Ci?/Lij? \n(Baru)\nTDS": "0,383", "Ph(i)": "5,88", "Bakumutu(tds).1": null, "Ci?/Lij?\nPH": "1,62", "Ci?/Lij? \n(Baru)\nPH": "2,048", "Ci?/Lij?\nRata-rata": "1,215", "Ci?/Lij?\nMax": "2,048", "IP": "1,684" }, "geometry": { "type": "Point", "coordinates": [ 109.73565370573948, -7.784784974220216 ] } },
{ "type": "Feature", "properties": { "x": 360276.0, "y": 9138834.0, "MAT\n(mdpl)": "16,2", "Suhu": "26,8", "Ph": "6,86", "TDS": 126, "DHL": 241, "TDS(i)": 126, "Bakumutu(tds)": null, "Ci?/Lij?\nTDS": "0,42", "Ci?/Lij? \n(Baru)\nTDS": "0,42", "Ph(i)": "6,86", "Bakumutu(tds).1": null, "Ci?/Lij?\nPH": "0,64", "Ci?/Lij? \n(Baru)\nPH": "0,64", "Ci?/Lij?\nRata-rata": "0,53", "Ci?/Lij?\nMax": "0,64", "IP": "0,588" }, "geometry": { "type": "Point", "coordinates": [ 109.732821412326473, -7.788864182403419 ] } },
{ "type": "Feature", "properties": { "x": 360531.0, "y": 9138854.0, "MAT\n(mdpl)": "17,93", "Suhu": "26,4", "Ph": "6,86", "TDS": 126, "DHL": 253, "TDS(i)": 126, "Bakumutu(tds)": null, "Ci?/Lij?\nTDS": "0,42", "Ci?/Lij? \n(Baru)\nTDS": "0,42", "Ph(i)": "6,86", "Bakumutu(tds).1": null, "Ci?/Lij?\nPH": "0,64", "Ci?/Lij? \n(Baru)\nPH": "0,64", "Ci?/Lij?\nRata-rata": "0,53", "Ci?/Lij?\nMax": "0,64", "IP": "0,588" }, "geometry": { "type": "Point", "coordinates": [ 109.735134204080524, -7.788690220671579 ] } },
{ "type": "Feature", "properties": { "x": 360652.0, "y": 9138813.0, "MAT\n(mdpl)": "14,3", "Suhu": "26,5", "Ph": "6,15", "TDS": 125, "DHL": 250, "TDS(i)": 125, "Bakumutu(tds)": null, "Ci?/Lij?\nTDS": "0,417", "Ci?/Lij? \n(Baru)\nTDS": "0,417", "Ph(i)": "6,15", "Bakumutu(tds).1": null, "Ci?/Lij?\nPH": "1,35", "Ci?/Lij? \n(Baru)\nPH": "1,652", "Ci?/Lij?\nRata-rata": "1,034", "Ci?/Lij?\nMax": "1,652", "IP": "1,378" }, "geometry": { "type": "Point", "coordinates": [ 109.736230277713844, -7.789064274183711 ] } },
{ "type": "Feature", "properties": { "x": 360747.0, "y": 9138787.0, "MAT\n(mdpl)": "16,1", "Suhu": "26,7", "Ph": "6,44", "TDS": 143, "DHL": 287, "TDS(i)": 143, "Bakumutu(tds)": null, "Ci?/Lij?\nTDS": "0,477", "Ci?/Lij? \n(Baru)\nTDS": "0,477", "Ph(i)": "6,44", "Bakumutu(tds).1": null, "Ci?/Lij?\nPH": "1,06", "Ci?/Lij? \n(Baru)\nPH": "1,127", "Ci?/Lij?\nRata-rata": "0,802", "Ci?/Lij?\nMax": "1,127", "IP": "0,978" }, "geometry": { "type": "Point", "coordinates": [ 109.737091000746474, -7.789301971188022 ] } },
{ "type": "Feature", "properties": { "x": 360760.0, "y": 9138780.0, "MAT\n(mdpl)": "23,1", "Suhu": "26,3", "Ph": "6,23", "TDS": 98, "DHL": 195, "TDS(i)": 98, "Bakumutu(tds)": null, "Ci?/Lij?\nTDS": "0,327", "Ci?/Lij? \n(Baru)\nTDS": "0,327", "Ph(i)": "6,23", "Bakumutu(tds).1": null, "Ci?/Lij?\nPH": "1,27", "Ci?/Lij? \n(Baru)\nPH": "1,519", "Ci?/Lij?\nRata-rata": "0,923", "Ci?/Lij?\nMax": "1,519", "IP": "1,257" }, "geometry": { "type": "Point", "coordinates": [ 109.737208690745931, -7.789365626473453 ] } },
{ "type": "Feature", "properties": { "x": 360814.0, "y": 9138761.0, "MAT\n(mdpl)": "19,05", "Suhu": "25,3", "Ph": "6,33", "TDS": 162, "DHL": 325, "TDS(i)": 162, "Bakumutu(tds)": null, "Ci?/Lij?\nTDS": "0,54", "Ci?/Lij? \n(Baru)\nTDS": "0,54", "Ph(i)": "6,33", "Bakumutu(tds).1": null, "Ci?/Lij?\nPH": "1,17", "Ci?/Lij? \n(Baru)\nPH": "1,341", "Ci?/Lij?\nRata-rata": "0,94", "Ci?/Lij?\nMax": "1,341", "IP": "1,158" }, "geometry": { "type": "Point", "coordinates": [ 109.737697830208731, -7.789538910442103 ] } },
{ "type": "Feature", "properties": { "x": 360821.0, "y": 9138755.0, "MAT\n(mdpl)": "17,15", "Suhu": "26,1", "Ph": "5,95", "TDS": 176, "DHL": 351, "TDS(i)": 176, "Bakumutu(tds)": null, "Ci?/Lij?\nTDS": "0,587", "Ci?/Lij? \n(Baru)\nTDS": "0,587", "Ph(i)": "5,95", "Bakumutu(tds).1": null, "Ci?/Lij?\nPH": "1,55", "Ci?/Lij? \n(Baru)\nPH": "1,952", "Ci?/Lij?\nRata-rata": "1,269", "Ci?/Lij?\nMax": "1,952", "IP": "1,646" }, "geometry": { "type": "Point", "coordinates": [ 109.737761141430596, -7.789593360108815 ] } },
{ "type": "Feature", "properties": { "x": 361630.0, "y": 9138543.0, "MAT\n(mdpl)": "14,85", "Suhu": "26,2", "Ph": "5,96", "TDS": 122, "DHL": 245, "TDS(i)": 122, "Bakumutu(tds)": null, "Ci?/Lij?\nTDS": "0,407", "Ci?/Lij? \n(Baru)\nTDS": "0,407", "Ph(i)": "5,96", "Bakumutu(tds).1": null, "Ci?/Lij?\nPH": "1,54", "Ci?/Lij? \n(Baru)\nPH": "1,938", "Ci?/Lij?\nRata-rata": "1,172", "Ci?/Lij?\nMax": "1,938", "IP": "1,602" }, "geometry": { "type": "Point", "coordinates": [ 109.74509119077689, -7.791532359068324 ] } },
{ "type": "Feature", "properties": { "x": 361526.0, "y": 9138579.0, "MAT\n(mdpl)": "16", "Suhu": "26,4", "Ph": "6,86", "TDS": 146, "DHL": 292, "TDS(i)": 146, "Bakumutu(tds)": null, "Ci?/Lij?\nTDS": "0,487", "Ci?/Lij? \n(Baru)\nTDS": "0,487", "Ph(i)": "6,86", "Bakumutu(tds).1": null, "Ci?/Lij?\nPH": "0,64", "Ci?/Lij? \n(Baru)\nPH": "0,64", "Ci?/Lij?\nRata-rata": "0,563", "Ci?/Lij?\nMax": "0,64", "IP": "0,603" }, "geometry": { "type": "Point", "coordinates": [ 109.744149116165389, -7.791204000443889 ] } },
{ "type": "Feature", "properties": { "x": 360875.0, "y": 9139144.0, "MAT\n(mdpl)": "9,5", "Suhu": "25,8", "Ph": "6,59", "TDS": 98, "DHL": 199, "TDS(i)": 98, "Bakumutu(tds)": null, "Ci?/Lij?\nTDS": "0,327", "Ci?/Lij? \n(Baru)\nTDS": "0,327", "Ph(i)": "6,59", "Bakumutu(tds).1": null, "Ci?/Lij?\nPH": "0,91", "Ci?/Lij? \n(Baru)\nPH": "0,91", "Ci?/Lij?\nRata-rata": "0,618", "Ci?/Lij?\nMax": "0,91", "IP": "0,778" }, "geometry": { "type": "Point", "coordinates": [ 109.738261323159591, -7.786076920785719 ] } },
{ "type": "Feature", "properties": { "x": 360920.0, "y": 9138713.0, "MAT\n(mdpl)": "20,35", "Suhu": "24,3", "Ph": "6,86", "TDS": 161, "DHL": 332, "TDS(i)": 161, "Bakumutu(tds)": null, "Ci?/Lij?\nTDS": "0,537", "Ci?/Lij? \n(Baru)\nTDS": "0,537", "Ph(i)": "6,86", "Bakumutu(tds).1": null, "Ci?/Lij?\nPH": "0,64", "Ci?/Lij? \n(Baru)\nPH": "0,64", "Ci?/Lij?\nRata-rata": "0,588", "Ci?/Lij?\nMax": "0,64", "IP": "0,615" }, "geometry": { "type": "Point", "coordinates": [ 109.738657704601749, -7.789975857283077 ] } },
{ "type": "Feature", "properties": { "x": 361038.0, "y": 9138690.0, "MAT\n(mdpl)": "15,15", "Suhu": "25,2", "Ph": "6,26", "TDS": 229, "DHL": 458, "TDS(i)": 229, "Bakumutu(tds)": null, "Ci?/Lij?\nTDS": "0,763", "Ci?/Lij? \n(Baru)\nTDS": "0,763", "Ph(i)": "6,26", "Bakumutu(tds).1": null, "Ci?/Lij?\nPH": "1,24", "Ci?/Lij? \n(Baru)\nPH": "1,467", "Ci?/Lij?\nRata-rata": "1,115", "Ci?/Lij?\nMax": "1,467", "IP": "1,303" }, "geometry": { "type": "Point", "coordinates": [ 109.739727069617643, -7.790187039832135 ] } },
{ "type": "Feature", "properties": { "x": 361228.0, "y": 9138615.0, "MAT\n(mdpl)": "12,95", "Suhu": "25,3", "Ph": "6,62", "TDS": 105, "DHL": 210, "TDS(i)": 105, "Bakumutu(tds)": null, "Ci?/Lij?\nTDS": "0,35", "Ci?/Lij? \n(Baru)\nTDS": "0,35", "Ph(i)": "6,62", "Bakumutu(tds).1": null, "Ci?/Lij?\nPH": "0,88", "Ci?/Lij? \n(Baru)\nPH": "0,88", "Ci?/Lij?\nRata-rata": "0,615", "Ci?/Lij?\nMax": "0,88", "IP": "0,759" }, "geometry": { "type": "Point", "coordinates": [ 109.741447906424298, -7.790870418680959 ] } },
{ "type": "Feature", "properties": { "x": 361120.0, "y": 9138684.0, "MAT\n(mdpl)": "13", "Suhu": "25,3", "Ph": "6,86", "TDS": 116, "DHL": 231, "TDS(i)": 116, "Bakumutu(tds)": null, "Ci?/Lij?\nTDS": "0,387", "Ci?/Lij? \n(Baru)\nTDS": "0,387", "Ph(i)": "6,86", "Bakumutu(tds).1": null, "Ci?/Lij?\nPH": "0,64", "Ci?/Lij? \n(Baru)\nPH": "0,64", "Ci?/Lij?\nRata-rata": "0,513", "Ci?/Lij?\nMax": "0,64", "IP": "0,58" }, "geometry": { "type": "Point", "coordinates": [ 109.740470458336034, -7.790243511147653 ] } },
{ "type": "Feature", "properties": { "x": 361347.0, "y": 9138637.0, "MAT\n(mdpl)": "10,25", "Suhu": "25,1", "Ph": "6,39", "TDS": 366, "DHL": 733, "TDS(i)": 366, "Bakumutu(tds)": null, "Ci?/Lij?\nTDS": "1,22", "Ci?/Lij? \n(Baru)\nTDS": "1,43", "Ph(i)": "6,39", "Bakumutu(tds).1": null, "Ci?/Lij?\nPH": "1,11", "Ci?/Lij? \n(Baru)\nPH": "1,227", "Ci?/Lij?\nRata-rata": "1,328", "Ci?/Lij?\nMax": "1,43", "IP": "1,38" }, "geometry": { "type": "Point", "coordinates": [ 109.74252755806701, -7.790674666346485 ] } },
{ "type": "Feature", "properties": { "x": 361444.0, "y": 9138619.0, "MAT\n(mdpl)": "22,09", "Suhu": "25,6", "Ph": "6,37", "TDS": 123, "DHL": 246, "TDS(i)": 123, "Bakumutu(tds)": null, "Ci?/Lij?\nTDS": "0,41", "Ci?/Lij? \n(Baru)\nTDS": "0,41", "Ph(i)": "6,37", "Bakumutu(tds).1": null, "Ci?/Lij?\nPH": "1,13", "Ci?/Lij? \n(Baru)\nPH": "1,265", "Ci?/Lij?\nRata-rata": "0,838", "Ci?/Lij?\nMax": "1,265", "IP": "1,073" }, "geometry": { "type": "Point", "coordinates": [ 109.743406640995403, -7.790840057776224 ] } },
{ "type": "Feature", "properties": { "x": 361301.0, "y": 9138525.0, "MAT\n(mdpl)": "11,41", "Suhu": "26,2", "Ph": "5,84", "TDS": 139, "DHL": 278, "TDS(i)": 139, "Bakumutu(tds)": null, "Ci?/Lij?\nTDS": "0,463", "Ci?/Lij? \n(Baru)\nTDS": "0,463", "Ph(i)": "5,84", "Bakumutu(tds).1": null, "Ci?/Lij?\nPH": "1,66", "Ci?/Lij? \n(Baru)\nPH": "2,101", "Ci?/Lij?\nRata-rata": "1,282", "Ci?/Lij?\nMax": "2,101", "IP": "1,74" }, "geometry": { "type": "Point", "coordinates": [ 109.742107420255678, -7.791686294751691 ] } },
{ "type": "Feature", "properties": { "x": 361411.0, "y": 9138512.0, "MAT\n(mdpl)": "14,2", "Suhu": "26,7", "Ph": "6,86", "TDS": 120, "DHL": 201, "TDS(i)": 120, "Bakumutu(tds)": null, "Ci?/Lij?\nTDS": "0,4", "Ci?/Lij? \n(Baru)\nTDS": "0,4", "Ph(i)": "6,86", "Bakumutu(tds).1": null, "Ci?/Lij?\nPH": "0,64", "Ci?/Lij? \n(Baru)\nPH": "0,64", "Ci?/Lij?\nRata-rata": "0,52", "Ci?/Lij?\nMax": "0,64", "IP": "0,583" }, "geometry": { "type": "Point", "coordinates": [ 109.743104520403463, -7.791806819812314 ] } },
{ "type": "Feature", "properties": { "x": 361087.0, "y": 9138598.0, "MAT\n(mdpl)": "13,53", "Suhu": "25,9", "Ph": "6,05", "TDS": 186, "DHL": 371, "TDS(i)": 186, "Bakumutu(tds)": null, "Ci?/Lij?\nTDS": "0,62", "Ci?/Lij? \n(Baru)\nTDS": "0,62", "Ph(i)": "6,05", "Bakumutu(tds).1": null, "Ci?/Lij?\nPH": "1,45", "Ci?/Lij? \n(Baru)\nPH": "1,807", "Ci?/Lij?\nRata-rata": "1,213", "Ci?/Lij?\nMax": "1,807", "IP": "1,539" }, "geometry": { "type": "Point", "coordinates": [ 109.740168899686452, -7.791020357797795 ] } },
{ "type": "Feature", "properties": { "x": 360985.0, "y": 9138613.0, "MAT\n(mdpl)": "14,19", "Suhu": "26,4", "Ph": "5,99", "TDS": 114, "DHL": 229, "TDS(i)": 114, "Bakumutu(tds)": null, "Ci?/Lij?\nTDS": "0,38", "Ci?/Lij? \n(Baru)\nTDS": "0,38", "Ph(i)": "5,99", "Bakumutu(tds).1": null, "Ci?/Lij?\nPH": "1,51", "Ci?/Lij? \n(Baru)\nPH": "1,895", "Ci?/Lij?\nRata-rata": "1,137", "Ci?/Lij?\nMax": "1,895", "IP": "1,563" }, "geometry": { "type": "Point", "coordinates": [ 109.739244399062159, -7.790881955217922 ] } },
{ "type": "Feature", "properties": { "x": 360718.0, "y": 9138695.0, "MAT\n(mdpl)": "17,42", "Suhu": "26,9", "Ph": "6,17", "TDS": 94, "DHL": 191, "TDS(i)": 94, "Bakumutu(tds)": null, "Ci?/Lij?\nTDS": "0,313", "Ci?/Lij? \n(Baru)\nTDS": "0,313", "Ph(i)": "6,17", "Bakumutu(tds).1": null, "Ci?/Lij?\nPH": "1,33", "Ci?/Lij? \n(Baru)\nPH": "1,619", "Ci?/Lij?\nRata-rata": "0,966", "Ci?/Lij?\nMax": "1,619", "IP": "1,333" }, "geometry": { "type": "Point", "coordinates": [ 109.736825545316648, -7.790133183286354 ] } },
{ "type": "Feature", "properties": { "x": 360862.0, "y": 9138844.0, "MAT\n(mdpl)": "13,42", "Suhu": "26", "Ph": "6,32", "TDS": 86, "DHL": 173, "TDS(i)": 86, "Bakumutu(tds)": null, "Ci?/Lij?\nTDS": "0,287", "Ci?/Lij? \n(Baru)\nTDS": "0,287", "Ph(i)": "6,32", "Bakumutu(tds).1": null, "Ci?/Lij?\nPH": "1,18", "Ci?/Lij? \n(Baru)\nPH": "1,359", "Ci?/Lij?\nRata-rata": "0,823", "Ci?/Lij?\nMax": "1,359", "IP": "1,123" }, "geometry": { "type": "Point", "coordinates": [ 109.738135325260288, -7.788789601333836 ] } },
{ "type": "Feature", "properties": { "x": 360523.0, "y": 9138749.0, "MAT\n(mdpl)": "18,33", "Suhu": "26,8", "Ph": "5,7", "TDS": 91, "DHL": 183, "TDS(i)": 91, "Bakumutu(tds)": null, "Ci?/Lij?\nTDS": "0,303", "Ci?/Lij? \n(Baru)\nTDS": "0,303", "Ph(i)": "5,7", "Bakumutu(tds).1": null, "Ci?/Lij?\nPH": "1,8", "Ci?/Lij? \n(Baru)\nPH": "2,276", "Ci?/Lij?\nRata-rata": "1,29", "Ci?/Lij?\nMax": "2,276", "IP": "1,85" }, "geometry": { "type": "Point", "coordinates": [ 109.735058813664835, -7.789639563950033 ] } },
{ "type": "Feature", "properties": { "x": 360433.0, "y": 9138776.0, "MAT\n(mdpl)": "15,17", "Suhu": "27,1", "Ph": "5,99", "TDS": 149, "DHL": 298, "TDS(i)": 149, "Bakumutu(tds)": null, "Ci?/Lij?\nTDS": "0,497", "Ci?/Lij? \n(Baru)\nTDS": "0,497", "Ph(i)": "5,99", "Bakumutu(tds).1": null, "Ci?/Lij?\nPH": "1,51", "Ci?/Lij? \n(Baru)\nPH": "1,895", "Ci?/Lij?\nRata-rata": "1,196", "Ci?/Lij?\nMax": "1,895", "IP": "1,584" }, "geometry": { "type": "Point", "coordinates": [ 109.734243457218938, -7.789392954881507 ] } },
{ "type": "Feature", "properties": { "x": 360272.0, "y": 9138565.0, "MAT\n(mdpl)": "20,6", "Suhu": "26,1", "Ph": "6,05", "TDS": 174, "DHL": 361, "TDS(i)": 174, "Bakumutu(tds)": null, "Ci?/Lij?\nTDS": "0,58", "Ci?/Lij? \n(Baru)\nTDS": "0,58", "Ph(i)": "6,05", "Bakumutu(tds).1": null, "Ci?/Lij?\nPH": "1,45", "Ci?/Lij? \n(Baru)\nPH": "1,807", "Ci?/Lij?\nRata-rata": "1,193", "Ci?/Lij?\nMax": "1,807", "IP": "1,531" }, "geometry": { "type": "Point", "coordinates": [ 109.732777828201563, -7.791296753389803 ] } },
{ "type": "Feature", "properties": { "x": 360396.0, "y": 9138597.0, "MAT\n(mdpl)": "21,4", "Suhu": "26,3", "Ph": "6,23", "TDS": 124, "DHL": 255, "TDS(i)": 124, "Bakumutu(tds)": null, "Ci?/Lij?\nTDS": "0,413", "Ci?/Lij? \n(Baru)\nTDS": "0,413", "Ph(i)": "6,23", "Bakumutu(tds).1": null, "Ci?/Lij?\nPH": "1,27", "Ci?/Lij? \n(Baru)\nPH": "1,519", "Ci?/Lij?\nRata-rata": "0,966", "Ci?/Lij?\nMax": "1,519", "IP": "1,273" }, "geometry": { "type": "Point", "coordinates": [ 109.733903091569147, -7.791010725239257 ] } },
{ "type": "Feature", "properties": { "x": 360505.0, "y": 9138579.0, "MAT\n(mdpl)": "17,4", "Suhu": "26,9", "Ph": "6,86", "TDS": 157, "DHL": 315, "TDS(i)": 157, "Bakumutu(tds)": null, "Ci?/Lij?\nTDS": "0,523", "Ci?/Lij? \n(Baru)\nTDS": "0,523", "Ph(i)": "6,86", "Bakumutu(tds).1": null, "Ci?/Lij?\nPH": "0,64", "Ci?/Lij? \n(Baru)\nPH": "0,64", "Ci?/Lij?\nRata-rata": "0,582", "Ci?/Lij?\nMax": "0,64", "IP": "0,612" }, "geometry": { "type": "Point", "coordinates": [ 109.734890981267213, -7.791176459036465 ] } },
{ "type": "Feature", "properties": { "x": 360647.0, "y": 9138530.0, "MAT\n(mdpl)": "14,75", "Suhu": "26,3", "Ph": "6,37", "TDS": 100, "DHL": 202, "TDS(i)": 100, "Bakumutu(tds)": null, "Ci?/Lij?\nTDS": "0,333", "Ci?/Lij? \n(Baru)\nTDS": "0,333", "Ph(i)": "6,37", "Bakumutu(tds).1": null, "Ci?/Lij?\nPH": "1,13", "Ci?/Lij? \n(Baru)\nPH": "1,265", "Ci?/Lij?\nRata-rata": "0,799", "Ci?/Lij?\nMax": "1,285", "IP": "1,07" }, "geometry": { "type": "Point", "coordinates": [ 109.736177265612085, -7.791623429616144 ] } },
{ "type": "Feature", "properties": { "x": 360870.0, "y": 9138464.0, "MAT\n(mdpl)": "16,7", "Suhu": "26", "Ph": "6,1", "TDS": 152, "DHL": 307, "TDS(i)": 152, "Bakumutu(tds)": null, "Ci?/Lij?\nTDS": "0,507", "Ci?/Lij? \n(Baru)\nTDS": "0,507", "Ph(i)": "6,1", "Bakumutu(tds).1": null, "Ci?/Lij?\nPH": "1,4", "Ci?/Lij? \n(Baru)\nPH": "1,731", "Ci?/Lij?\nRata-rata": "1,119", "Ci?/Lij?\nMax": "1,731", "IP": "1,457" }, "geometry": { "type": "Point", "coordinates": [ 109.738197578698745, -7.792226323274161 ] } },
{ "type": "Feature", "properties": { "x": 361472.0, "y": 9138315.0, "MAT\n(mdpl)": "14,64", "Suhu": "26", "Ph": "6,1", "TDS": 106, "DHL": 217, "TDS(i)": 106, "Bakumutu(tds)": null, "Ci?/Lij?\nTDS": "0,353", "Ci?/Lij? \n(Baru)\nTDS": "0,353", "Ph(i)": "6,1", "Bakumutu(tds).1": null, "Ci?/Lij?\nPH": "1,4", "Ci?/Lij? \n(Baru)\nPH": "1,731", "Ci?/Lij?\nRata-rata": "1,042", "Ci?/Lij?\nMax": "1,731", "IP": "1,429" }, "geometry": { "type": "Point", "coordinates": [ 109.743652340637851, -7.793590020984968 ] } },
{ "type": "Feature", "properties": { "x": 361322.0, "y": 9138355.0, "MAT\n(mdpl)": "14,78", "Suhu": "27", "Ph": "6,1", "TDS": 217, "DHL": 434, "TDS(i)": 217, "Bakumutu(tds)": null, "Ci?/Lij?\nTDS": "0,723", "Ci?/Lij? \n(Baru)\nTDS": "0,723", "Ph(i)": "6,1", "Bakumutu(tds).1": null, "Ci?/Lij?\nPH": "1,4", "Ci?/Lij? \n(Baru)\nPH": "1,731", "Ci?/Lij?\nRata-rata": "1,227", "Ci?/Lij?\nMax": "1,731", "IP": "1,5" }, "geometry": { "type": "Point", "coordinates": [ 109.74229325397107, -7.793224246597929 ] } },
{ "type": "Feature", "properties": { "x": 361188.0, "y": 9138389.0, "MAT\n(mdpl)": "15", "Suhu": "27,5", "Ph": "6,2", "TDS": 212, "DHL": 424, "TDS(i)": 212, "Bakumutu(tds)": null, "Ci?/Lij?\nTDS": "0,707", "Ci?/Lij? \n(Baru)\nTDS": "0,707", "Ph(i)": "6,2", "Bakumutu(tds).1": null, "Ci?/Lij?\nPH": "1,3", "Ci?/Lij? \n(Baru)\nPH": "1,57", "Ci?/Lij?\nRata-rata": "1,138", "Ci?/Lij?\nMax": "1,57", "IP": "1,371" }, "geometry": { "type": "Point", "coordinates": [ 109.741079092258829, -7.792913160075967 ] } },
{ "type": "Feature", "properties": { "x": 361117.0, "y": 9138410.0, "MAT\n(mdpl)": "14,43", "Suhu": "26,1", "Ph": "6,29", "TDS": 193, "DHL": 386, "TDS(i)": 193, "Bakumutu(tds)": null, "Ci?/Lij?\nTDS": "0,643", "Ci?/Lij? \n(Baru)\nTDS": "0,643", "Ph(i)": "6,29", "Bakumutu(tds).1": null, "Ci?/Lij?\nPH": "1,21", "Ci?/Lij? \n(Baru)\nPH": "1,414", "Ci?/Lij?\nRata-rata": "1,029", "Ci?/Lij?\nMax": "1,414", "IP": "1,236" }, "geometry": { "type": "Point", "coordinates": [ 109.740435849403681, -7.792721333999353 ] } },
{ "type": "Feature", "properties": { "x": 360960.0, "y": 9138463.0, "MAT\n(mdpl)": "14,59", "Suhu": "25,9", "Ph": "5,85", "TDS": 165, "DHL": 332, "TDS(i)": 165, "Bakumutu(tds)": null, "Ci?/Lij?\nTDS": "0,55", "Ci?/Lij? \n(Baru)\nTDS": "0,55", "Ph(i)": "5,85", "Bakumutu(tds).1": null, "Ci?/Lij?\nPH": "1,65", "Ci?/Lij? \n(Baru)\nPH": "2,087", "Ci?/Lij?\nRata-rata": "1,319", "Ci?/Lij?\nMax": "2,087", "IP": "1,746" }, "geometry": { "type": "Point", "coordinates": [ 109.739013647521062, -7.792237796539371 ] } },
{ "type": "Feature", "properties": { "x": 360806.0, "y": 9138486.0, "MAT\n(mdpl)": "18,9", "Suhu": "26,6", "Ph": "6,22", "TDS": 123, "DHL": 246, "TDS(i)": 123, "Bakumutu(tds)": null, "Ci?/Lij?\nTDS": "0,41", "Ci?/Lij? \n(Baru)\nTDS": "0,41", "Ph(i)": "6,22", "Bakumutu(tds).1": null, "Ci?/Lij?\nPH": "1,28", "Ci?/Lij? \n(Baru)\nPH": "1,536", "Ci?/Lij?\nRata-rata": "0,973", "Ci?/Lij?\nMax": "1,536", "IP": "1,286" }, "geometry": { "type": "Point", "coordinates": [ 109.737617840019098, -7.792025638892899 ] } },
{ "type": "Feature", "properties": { "x": 360444.0, "y": 9138423.0, "MAT\n(mdpl)": "21,73", "Suhu": "25,7", "Ph": "6,06", "TDS": 160, "DHL": 321, "TDS(i)": 160, "Bakumutu(tds)": null, "Ci?/Lij?\nTDS": "0,533", "Ci?/Lij? \n(Baru)\nTDS": "0,533", "Ph(i)": "6,06", "Bakumutu(tds).1": null, "Ci?/Lij?\nPH": "1,44", "Ci?/Lij? \n(Baru)\nPH": "1,792", "Ci?/Lij?\nRata-rata": "1,163", "Ci?/Lij?\nMax": "1,792", "IP": "1,51" }, "geometry": { "type": "Point", "coordinates": [ 109.734333614733018, -7.79258558109801 ] } },
{ "type": "Feature", "properties": { "x": 360317.0, "y": 9138250.0, "MAT\n(mdpl)": "16,11", "Suhu": "26,1", "Ph": "6,23", "TDS": 332, "DHL": 646, "TDS(i)": 332, "Bakumutu(tds)": null, "Ci?/Lij?\nTDS": "1,107", "Ci?/Lij? \n(Baru)\nTDS": "1,22", "Ph(i)": "6,23", "Bakumutu(tds).1": null, "Ci?/Lij?\nPH": "1,27", "Ci?/Lij? \n(Baru)\nPH": "1,519", "Ci?/Lij?\nRata-rata": "1,37", "Ci?/Lij?\nMax": "1,519", "IP": "1,446" }, "geometry": { "type": "Point", "coordinates": [ 109.733177309902899, -7.794146650317081 ] } },
{ "type": "Feature", "properties": { "x": 360152.0, "y": 9138157.0, "MAT\n(mdpl)": "16,15", "Suhu": "26,2", "Ph": "7,2", "TDS": 212, "DHL": 424, "TDS(i)": 212, "Bakumutu(tds)": null, "Ci?/Lij?\nTDS": "0,707", "Ci?/Lij? \n(Baru)\nTDS": "0,707", "Ph(i)": "7,2", "Bakumutu(tds).1": null, "Ci?/Lij?\nPH": "0,3", "Ci?/Lij? \n(Baru)\nPH": "0,3", "Ci?/Lij?\nRata-rata": "0,503", "Ci?/Lij?\nMax": "0,707", "IP": "0,614" }, "geometry": { "type": "Point", "coordinates": [ 109.731678598738455, -7.794983210064444 ] } },
{ "type": "Feature", "properties": { "x": 360490.0, "y": 9138094.0, "MAT\n(mdpl)": "13,73", "Suhu": "26,4", "Ph": "6,48", "TDS": 136, "DHL": 272, "TDS(i)": 136, "Bakumutu(tds)": null, "Ci?/Lij?\nTDS": "0,453", "Ci?/Lij? \n(Baru)\nTDS": "0,453", "Ph(i)": "6,48", "Bakumutu(tds).1": null, "Ci?/Lij?\nPH": "1,02", "Ci?/Lij? \n(Baru)\nPH": "1,043", "Ci?/Lij?\nRata-rata": "0,748", "Ci?/Lij?\nMax": "1,043", "IP": "0,908" }, "geometry": { "type": "Point", "coordinates": [ 109.734741794489778, -7.795562113282584 ] } },
{ "type": "Feature", "properties": { "x": 361472.0, "y": 9137750.0, "MAT\n(mdpl)": "13,15", "Suhu": "26,2", "Ph": "6,54", "TDS": 154, "DHL": 307, "TDS(i)": 154, "Bakumutu(tds)": null, "Ci?/Lij?\nTDS": "0,513", "Ci?/Lij? \n(Baru)\nTDS": "0,513", "Ph(i)": "6,54", "Bakumutu(tds).1": null, "Ci?/Lij?\nPH": "0,96", "Ci?/Lij? \n(Baru)\nPH": "0,96", "Ci?/Lij?\nRata-rata": "0,737", "Ci?/Lij?\nMax": "0,96", "IP": "0,856" }, "geometry": { "type": "Point", "coordinates": [ 109.74363709908819, -7.798699572144964 ] } },
{ "type": "Feature", "properties": { "x": 361212.0, "y": 9137811.0, "MAT\n(mdpl)": "15,6", "Suhu": "26,2", "Ph": "6,86", "TDS": 90, "DHL": 179, "TDS(i)": 90, "Bakumutu(tds)": null, "Ci?/Lij?\nTDS": "0,3", "Ci?/Lij? \n(Baru)\nTDS": "0,3", "Ph(i)": "6,86", "Bakumutu(tds).1": null, "Ci?/Lij?\nPH": "0,64", "Ci?/Lij? \n(Baru)\nPH": "0,64", "Ci?/Lij?\nRata-rata": "0,47", "Ci?/Lij?\nMax": "0,64", "IP": "0,561" }, "geometry": { "type": "Point", "coordinates": [ 109.741281098178902, -7.798140918217364 ] } },
{ "type": "Feature", "properties": { "x": 361025.0, "y": 9137939.0, "MAT\n(mdpl)": "14,51", "Suhu": "25,9", "Ph": "6,5", "TDS": 187, "DHL": 375, "TDS(i)": 187, "Bakumutu(tds)": null, "Ci?/Lij?\nTDS": "0,623", "Ci?/Lij? \n(Baru)\nTDS": "0,623", "Ph(i)": "6,5", "Bakumutu(tds).1": null, "Ci?/Lij?\nPH": "1", "Ci?/Lij? \n(Baru)\nPH": "1", "Ci?/Lij?\nRata-rata": "0,812", "Ci?/Lij?\nMax": "1", "IP": "0,911" }, "geometry": { "type": "Point", "coordinates": [ 109.739588872035995, -7.79697831294962 ] } },
{ "type": "Feature", "properties": { "x": 360798.0, "y": 9137912.0, "MAT\n(mdpl)": "18,25", "Suhu": "26", "Ph": "6,29", "TDS": 109, "DHL": 217, "TDS(i)": 109, "Bakumutu(tds)": null, "Ci?/Lij?\nTDS": "0,363", "Ci?/Lij? \n(Baru)\nTDS": "0,363", "Ph(i)": "6,29", "Bakumutu(tds).1": null, "Ci?/Lij?\nPH": "1,21", "Ci?/Lij? \n(Baru)\nPH": "1,414", "Ci?/Lij?\nRata-rata": "0,889", "Ci?/Lij?\nMax": "1,414", "IP": "1,181" }, "geometry": { "type": "Point", "coordinates": [ 109.737529741711597, -7.797216353108437 ] } },
{ "type": "Feature", "properties": { "x": 360389.0, "y": 9138101.0, "MAT\n(mdpl)": "21,35", "Suhu": "25,6", "Ph": "6,86", "TDS": 183, "DHL": 372, "TDS(i)": 183, "Bakumutu(tds)": null, "Ci?/Lij?\nTDS": "0,61", "Ci?/Lij? \n(Baru)\nTDS": "0,61", "Ph(i)": "6,86", "Bakumutu(tds).1": null, "Ci?/Lij?\nPH": "0,64", "Ci?/Lij? \n(Baru)\nPH": "0,64", "Ci?/Lij?\nRata-rata": "0,625", "Ci?/Lij?\nMax": "0,64", "IP": "0,633" }, "geometry": { "type": "Point", "coordinates": [ 109.733826138135626, -7.7954960720386 ] } }
]
}
